Store_Name,Longitude,Latitude,Address,Address Line #2,City,State,Zip5,Zip4,County,
"EL BOMBAZO MARKET INC.",-71.414162,41.79776,"981 Broad St","","Providence","RI","02905","1704","PROVIDENCE" 
"Corner Store",-71.269608,41.729267,"370 Child St","","Warren","RI","02885","1837","BRISTOL" 
"SAM'S FOOD STORE 1033",-71.453674,41.832287,"1348 Chalkstone Ave","","Providence","RI","02909","3912","PROVIDENCE" 
"Yorktown Market Inc",-71.457657,41.613544,"6769 Post Rd","","North Kingstown","RI","02852","2126","WASHINGTON" 
"COLUMBUS MINI MART",-71.362068,41.870472,"232 Columbus Ave","","Pawtucket","RI","02861","3407","PROVIDENCE" 
"CHINESE AMERICAN MINI MARKET INC",-71.435219,41.778812,"834 Park Ave # 836","","Cranston","RI","02910","2026","PROVIDENCE" 
"7-ELEVEN 33506A",-71.411301,41.822819,"141 Weybosset St","","Providence","RI","02903","3803","PROVIDENCE" 
"FREEDOM SEAFOODS INC",-71.43541,41.778854,"840 Park Ave","","Cranston","RI","02910","2026","PROVIDENCE" 
"SAMS FOOD STORES 1052",-71.41687,41.75201,"885 Post Rd","","Warwick","RI","02888","3361","KENT" 
"HILL MART",-71.317032,41.513607,"295 Connell Hwy","","Newport","RI","02840","1057","NEWPORT" 
"SHAW'S SUPERMARKET 07625",-71.460678,41.755962,"8 Chapel View Blvd","","Cranston","RI","02920","3062","PROVIDENCE" 
"BR MARKET",-71.451645,41.823704,"352 Manton Ave","","Providence","RI","02909","3626","PROVIDENCE" 
"WALGREEN 06592",-71.407181,41.733959,"1560 Warwick Ave","","Warwick","RI","02889","1020","KENT" 
"CRANSTON VARIETY STORE",-71.429047,41.812832,"306 Cranston St","","Providence","RI","02907","2408","PROVIDENCE" 
"MANVILLE MARKET",-71.470833,41.968952,"6 Old Main St","","Manville","RI","02838","1614","PROVIDENCE" 
"STOP AND GO FOOD MART",-71.830956,41.373589,"129 Main St","","Westerly","RI","02891","2112","WASHINGTON" 
"MILK N MORE",-71.452316,41.784184,"1232 Park Ave","","Cranston","RI","02910","3019","PROVIDENCE" 
"RIVER AVE B & M FOOD MART",-71.438278,41.832142,"168 River Ave","","Providence","RI","02908","4732","PROVIDENCE" 
"Downtown Market",-71.40963,41.825993,"2 KENNEDY PLAZA","","PROVIDENCE","RI","02903","","PROVIDENCE" 
"GIO'S MARKET",-71.424927,41.835476,"537 Chalkstone Ave","","Providence","RI","02908","3651","PROVIDENCE" 
"Food Chalet",-71.416573,41.75206,"874 Post Rd","","Warwick","RI","02888","3365","KENT" 
"CARLITOS MARKET INC",-71.422394,41.835648,"35 Candace St","","Providence","RI","02908","3753","PROVIDENCE" 
"NORTHERN LOBSTER",-71.499146,41.824444,"1505 Atwood Ave","","Johnston","RI","02919","3232","PROVIDENCE" 
"TARGET 1188",-71.493538,41.704575,"1245 Bald Hill Rd","Ste 1","Warwick","RI","02886","4234","KENT" 
"OCEAN PRIDE SEAFOOD OF CRANSTON",-71.472885,41.783058,"270 Atwood Ave","","Cranston","RI","02920","4053","PROVIDENCE" 
"LA GIGANTE MEAT MARKET INC",-71.42308,41.811424,"49 Elmwood Ave","","Providence","RI","02907","2401","PROVIDENCE" 
"SANCHEZ MARKET",-71.419693,41.805756,"676 Broad St","","Providence","RI","02907","1466","PROVIDENCE" 
"DOLLAR TREE 1733",-71.468803,41.819847,"377 Killingly St","","Providence","RI","02909","5900","PROVIDENCE" 
"SIME MARKET",-71.444397,41.820419,"70 Appleton St","","Providence","RI","02909","2731","PROVIDENCE" 
"TARGET STORE 2073",-71.480644,41.93541,"620 George Washington Hwy","Ste 1","Lincoln","RI","02865","4272","PROVIDENCE" 
"VILLAGE MARKET",-71.426628,41.814075,"208 Cranston St","","Providence","RI","02907","2308","PROVIDENCE" 
"7-ELEVEN 29112G",-71.426422,41.835491,"460 Smith St","","Providence","RI","02908","4307","PROVIDENCE" 
"Confreda Green Houses & Farms FM",-71.545723,41.766373,"2150 Scituate Ave","","Hope","RI","02831","1882","PROVIDENCE" 
"BROADWAY EXPRESS MART",-71.427811,41.820122,"306 Broadway","","Providence","RI","02903","3041","PROVIDENCE" 
"BUTTONWOODS ONE STOP",-71.430252,41.701355,"214 Buttonwoods Ave","","Warwick","RI","02886","7541","KENT" 
"126 FISH MARKET",-71.414146,41.873341,"453 Smithfield Ave","","Pawtucket","RI","02860","2544","PROVIDENCE" 
"SANDY LANE GAS & CONVENIENCE STORE",-71.416534,41.706383,"1015 Sandy Ln","","Warwick","RI","02889","8070","KENT" 
"SHAW'S SUPERMARKET 07442",-71.298119,41.517452,"71 E Main Rd","","Middletown","RI","02842","","NEWPORT" 
"Gemma's Market",-71.432564,41.810436,"458 Cranston St","","Providence","RI","02907","2705","PROVIDENCE" 
"SHAW'S SUPERMARKET 07441",-71.405098,41.767281,"320 Warwick Ave","Bldg 1","Warwick","RI","02888","1300","KENT" 
"ATLANTIC FISH MARKET",-71.374168,41.823616,"127 Waterman Ave","","East Providence","RI","02914","4321","PROVIDENCE" 
"SAMS FOOD STORE",-71.444252,41.816799,"28 Hartford Ave","","Providence","RI","02909","3359","PROVIDENCE" 
"ESTRELLA BAKERY",-71.371513,41.810467,"1106 S Broadway","","East Providence","RI","02914","4981","PROVIDENCE" 
"WALMART SUPERCENTER 2283",-71.559792,41.66143,"650 Centre of New England Blvd","","Coventry","RI","02816","6081","KENT" 
"BARCAS MARKET",-71.749992,41.411858,"244B Ashaway Rd","","Bradford","RI","02808","1745","WASHINGTON" 
"BD MART",-71.49041,41.80537,"1180 Atwood Ave","","Johnston","RI","02919","4920","PROVIDENCE" 
"RIBATEJO",-71.364182,41.892567,"167 Benefit St","","Pawtucket","RI","02861","1154","PROVIDENCE" 
"IQBAL CONVENIENCE STORES INC DBA SAMS STORE",-71.514465,41.992287,"805 Park Ave","","Woonsocket","RI","02895","5897","PROVIDENCE" 
"WALGREENS 09943",-71.477676,41.734615,"1279 Oaklawn Ave","","Cranston","RI","02920","2652","PROVIDENCE" 
"SIMPLY SEASONAL",-71.473564,41.854725,"1839 Smith St","","N Providence","RI","02911","2326","PROVIDENCE" 
"Quick Mart",-71.524269,41.997326,"85 Mason St","","Woonsocket","RI","02895","","PROVIDENCE" 
"Bahras Market",-71.422844,41.861965,"900 Charles St","","North Providence","RI","02904","5623","PROVIDENCE" 
"Hess Express 39213",-71.454552,41.825317,"442 Manton Ave","","Providence","RI","02909","5029","PROVIDENCE" 
"WALMART 3301",-71.417595,41.845566,"51 Silver Spring St","","Providence","RI","02904","2557","PROVIDENCE" 
"SAVE-A-LOT 827",-71.428131,41.853466,"700 Branch Ave","Branch Avenue Plaza","Providence","RI","02904","1702","PROVIDENCE" 
"Pricerite of Pawtucket",-71.400063,41.880692,"465 Lonsdale Ave","","Pawtucket","RI","02860","1848","PROVIDENCE" 
"WALGREENS 09995",-71.522957,41.684395,"1 Cowesett Ave","","West Warwick","RI","02893","3207","KENT" 
"Stop & Shop 737",-71.50148,41.582054,"1300 Ten Rod Rd","","N Kingstown","RI","02852","4107","WASHINGTON" 
"Country Farms",-71.701447,41.95787,"138 Pascoag Main St","","Pascoag","RI","02859","3101","PROVIDENCE" 
"WALGREENS 06892",-71.263893,41.695335,"591 Metacom Ave","","Bristol","RI","02809","5131","BRISTOL" 
"Espinal Grocery",-71.446327,41.82502,"875 Atwells Ave","","Providence","RI","02909","2504","PROVIDENCE" 
"Green Grocer",-71.254761,41.560001,"934 E Main Rd","","Portsmouth","RI","02871","2348","NEWPORT" 
"CUMBERLAND FARMS  1282",-71.553558,41.833241,"2643 Hartford Ave","","Johnston","RI","02919","1614","PROVIDENCE" 
"Pawtucket Food Mart",-71.41378,41.871288,"755 Mineral Spring Ave","","Pawtucket","RI","02860","3412","PROVIDENCE" 
"7-Eleven 25854D",-71.317589,41.507919,"135 Connell Hwy","","Newport","RI","02840","1313","NEWPORT" 
"Khout Gas Station",-71.402824,41.892429,"1051 Lonsdale Ave","","Central Falls","RI","02863","1721","PROVIDENCE" 
"Broadway Mart",-71.371361,41.811668,"1049 S Broadway","","E Providence","RI","02914","4729","PROVIDENCE" 
"Guatepan Bakery",-71.445244,41.818542,"95 Manton Ave","","Providence","RI","02909","3307","PROVIDENCE" 
"Target 1404",-71.521622,41.870209,"371 Putnam Pike","Ste 250","Smithfield","RI","02917","2445","PROVIDENCE" 
"Borrellis Bakery",-71.421425,41.858337,"805 Charles St","","Providence","RI","02904","1302","PROVIDENCE" 
"Gulf Express",-71.514488,41.991734,"852 Park Ave","","Woonsocket","RI","02895","5873","PROVIDENCE" 
"Friendship Market",-71.435196,41.810204,"187 Messer St","","Providence","RI","02909","2211","PROVIDENCE" 
"Kevin Food Market",-71.443665,41.827492,"103 Academy Ave","","Providence","RI","02908","4539","PROVIDENCE" 
"Quick Mart",-71.490845,42.007965,"710 Elm St","","Woonsocket","RI","02895","3519","PROVIDENCE" 
"J & J Market",-71.390564,41.888161,"69 Washington St","","Central Falls","RI","02863","2215","PROVIDENCE" 
"Sams Food Store",-71.437424,41.775154,"460 Pontiac Ave","","Cranston","RI","02910","3323","PROVIDENCE" 
"Antillas Supermarket #4",-71.422554,41.837227,"194 Douglas Ave","","Providence","RI","02908","3743","PROVIDENCE" 
"Whole Foods Market 10254",-71.457191,41.755615,"151 Sockanosset Cross Rd","","Cranston","RI","02920","5548","PROVIDENCE" 
"AJ'S MINI MARKET, INC",-71.501099,42.013554,"939 Social St","","Woonsocket","RI","02895","1340","PROVIDENCE" 
"CH Charles 5 & 10 Store",-71.308479,41.496044,"232 Broadway","","Newport","RI","02840","2638","NEWPORT" 
"Newport Express",-71.354553,41.860855,"54 Newport Ave","","Pawtucket","RI","02861","4414","PROVIDENCE" 
"Rodriguez Meat Market",-71.456757,41.81818,"400 Hartford Ave","","Providence","RI","02909","5115","PROVIDENCE" 
"The Cumberland Spot",-71.424721,41.930855,"1152 Mendon Rd","","Cumberland","RI","02864","4804","PROVIDENCE" 
"A&S Convenience and Deli",-71.391327,41.868729,"248 West Ave","","Pawtucket","RI","02860","3741","PROVIDENCE" 
"Crugnale Bakery",-71.439751,41.825298,"11 Newark St","","Providence","RI","02908","5313","PROVIDENCE" 
"Rockys Market",-71.43692,41.815247,"19 Messer St","","Providence","RI","02909","2005","PROVIDENCE" 
"La Gran Via",-71.457542,41.818443,"417 Hartford Ave","","Providence","RI","02909","5130","PROVIDENCE" 
"Crescent Market Place",-71.359947,41.757961,"745 Bullocks Point Ave","","Riverside","RI","02915","3543","PROVIDENCE" 
"WALGREENS 10256",-71.402336,41.851532,"1140 N Main St","","Providence","RI","02904","1819","PROVIDENCE" 
"ALDI 38",-71.50032,41.682442,"444 Quaker Ln","","Warwick","RI","02886","0185","KENT" 
"Legris XtraMart",-71.518784,41.695923,"139 Legris Ave","","West Warwick","RI","02893","2920","KENT" 
"Rochs Market",-71.521942,41.695259,"1475 Main St","","West Warwick","RI","02893","2927","KENT" 
"Fernandez Market",-71.453552,41.813515,"455 Plainfield St","","Providence","RI","02909","4443","PROVIDENCE" 
"PriceRite 371",-71.438774,41.826023,"325 Valley St","","Providence","RI","02908","5612","PROVIDENCE" 
"Oakies",-71.398071,41.691994,"626 Oakland Beach Ave","","Warwick","RI","02889","9450","KENT" 
"DOLLAR TREE 3580",-71.562042,41.682251,"760 Tiogue Ave","Ste A","Coventry","RI","02816","5801","KENT" 
"WALGREENS 10099",-71.428764,41.823803,"333 Atwells Ave","","Providence","RI","02903","1442","PROVIDENCE" 
"DOLLAR TREE 1599",-71.47715,41.732784,"1400 Oaklawn Ave","Ste 1","Cranston","RI","02920","2644","PROVIDENCE" 
"DOLLAR TREE 3156",-71.296814,41.52697,"880 W Main Rd","Unit A","Middletown","RI","02842","7312","NEWPORT" 
"ALDI 39",-71.449577,41.753304,"1138 Pontiac Ave","","Cranston","RI","02920","7921","PROVIDENCE" 
"221 Academy Ave Meat Market",-71.444199,41.830776,"221 Academy Ave","","Providence","RI","02908","4427","PROVIDENCE" 
"HIGH ST MARKET INC",-71.396828,41.919956,"732 High St","","Cumberland","RI","02864","6520","PROVIDENCE" 
"Crugnale Bakery",-71.451363,41.862091,"1342 Douglas Ave","","N Providence","RI","02904","4337","PROVIDENCE" 
"Corner Store",-71.373711,41.87965,"136 Spring St","","Pawtucket","RI","02860","3028","PROVIDENCE" 
"Apple Valley Citgo Food Mart",-71.500076,41.846786,"514 Greenville Ave","","Johnston","RI","02919","2217","PROVIDENCE" 
"Target 2430",-71.479881,41.726532,"400 Bald Hill Rd","","Warwick","RI","02886","","KENT" 
"Gulf Express",-71.429558,41.789734,"255 Reservoir Ave","","Providence","RI","02907","3402","PROVIDENCE" 
"DOLLAR TREE 2358",-71.355988,41.821968,"1925 Pawtucket Ave","Ste 2","East Providence","RI","02914","1630","PROVIDENCE" 
"DOLLAR TREE 2370",-71.35141,41.858227,"110 Narragansett Park Dr","","Rumford","RI","02916","1020","PROVIDENCE" 
"DOLLAR TREE 3700",-71.403046,41.911282,"8 Mendon Rd","","Cumberland","RI","02864","5327","PROVIDENCE" 
"North Providence Food Mart",-71.439041,41.867092,"1370 Mineral Spring Ave","","North Providence","RI","02904","4630","PROVIDENCE" 
"7 Eleven (33269H) 33269H",-71.507736,41.825916,"1601 Hartford Ave","","Johnston","RI","02919","3202","PROVIDENCE" 
"DOLLAR TREE 3579",-71.480446,41.935402,"622 George Washington Hwy","Ste 402","Lincoln","RI","02865","4274","PROVIDENCE" 
"Kwik Stop",-71.828018,41.383194,"74 Friendship St","","Westerly","RI","02891","1543","WASHINGTON" 
"MUC Enterprise Inc",-71.500771,42.014645,"1030 Social St","","Woonsocket","RI","02895","1327","PROVIDENCE" 
"TOWN MART",-71.354156,41.880325,"885 Newport Ave","","Pawtucket","RI","02861","2643","PROVIDENCE" 
"St Francis D Assisi Convenience",-71.443741,41.826977,"84 Academy Ave","","Providence","RI","02908","5329","PROVIDENCE" 
"ALDI 13",-71.354416,41.857162,"60 Newport Ave","","Rumford","RI","02916","2068","PROVIDENCE" 
"Dollar Tree 1477",-71.405098,41.767281,"320 Warwick Ave","Bldg 2","Warwick","RI","02888","1300","KENT" 
"Dollar Tree 1724",-71.457977,41.616753,"6649 Post Rd","","North Kingstown","RI","02852","1832","WASHINGTON" 
"Dollar Tree 1794",-71.444702,41.795639,"252 Garfield Ave","","Cranston","RI","02920","7803","PROVIDENCE" 
"Convenience Plus",-71.4991,41.824306,"1501 Atwood Ave","","Johnston","RI","02919","3232","PROVIDENCE" 
"Broadway Mart",-71.432922,41.819031,"447 Broadway","","Providence","RI","02909","1624","PROVIDENCE" 
"Walgreens 09374",-71.360542,41.811558,"600 Warren Ave","","East Providence","RI","02914","2808","PROVIDENCE" 
"Stop & Shop Super Center 739",-71.465034,41.720299,"565 Greenwich Ave","","Warwick","RI","02886","1814","KENT" 
"Walgreens 11147",-71.448029,41.813755,"1 Pocasset Ave","","Providence","RI","02909","2907","PROVIDENCE" 
"Trader Joes 518",-71.489311,41.711597,"1000 Bald Hill Rd","","Warwick","RI","02886","","KENT" 
"Taunton Ave Bakery",-71.374069,41.819729,"208 Taunton Ave","","East Providence","RI","02914","4556","PROVIDENCE" 
"Family Dollar 2120",-71.398499,41.710533,"2485 Warwick Ave","","Warwick","RI","02889","4262","KENT" 
"Family Dollar 2289",-71.820366,41.372154,"116 Granite St","","Westerly","RI","02891","","WASHINGTON" 
"Family Dollar 4947",-71.547325,41.696621,"635 Washington St","","Coventry","RI","02816","5479","KENT" 
"Family Dollar 3538",-71.525665,41.682415,"1745 Main St","","West Warwick","RI","02893","","KENT" 
"Family Dollar 4799",-71.698486,41.514328,"1190 Main St","Chariho Plz","Wyoming","RI","02898","1074","WASHINGTON" 
"Family Dollar 5017",-71.279289,41.693314,"1150 Hope St","","Bristol","RI","02809","1138","BRISTOL" 
"Family Dollar 2020",-71.462692,41.819126,"550 Hartford Ave","","Providence","RI","02909","","PROVIDENCE" 
"Family Dollar 5073",-71.507942,42.006233,"401 Clinton St","","Woonsocket","RI","02895","3214","PROVIDENCE" 
"Family Dollar 2095",-71.392288,41.882496,"320 Dexter St","","Pawtucket","RI","02860","1908","PROVIDENCE" 
"Family Dollar 2868",-71.441956,41.832256,"1030 Chalkstone Ave","","Providence","RI","02908","4550","PROVIDENCE" 
"Family Dollar 2190",-71.406525,41.791737,"1280 Broad St","","Providence","RI","02905","2933","PROVIDENCE" 
"Family Dollar 6933",-71.375084,41.887131,"502 Broadway","","Pawtucket","RI","02860","1341","PROVIDENCE" 
"Family Dollar 6864",-71.402061,41.786419,"1515 Broad St","","Providence","RI","02905","2835","PROVIDENCE" 
"Family Dollar 7649",-71.461441,41.850185,"1525 Smith St","","North Providence","RI","02911","","PROVIDENCE" 
"Dollar Tree Deal$ 3981",-71.496063,41.815262,"1386 Atwood Ave","Unit 1","Johnston","RI","02919","4911","PROVIDENCE" 
"Dollar Tree 1963",-71.4711,42.015106,"1900 Diamond Hill Rd","","Woonsocket","RI","02895","1592","PROVIDENCE" 
"Family Dollar 2108",-71.427826,41.85339,"678 Branch Ave","","Providence","RI","02904","1702","PROVIDENCE" 
"Family Dollar 2447",-71.364426,41.880352,"295 Armistice Blvd","","Pawtucket","RI","02861","","PROVIDENCE" 
"Family Dollar 2687",-71.372261,41.81971,"214 Taunton Ave","","East Providence","RI","02914","4557","PROVIDENCE" 
"Family Dollar 2924",-71.423302,41.74815,"1092 Post Rd","","Warwick","RI","02888","3327","KENT" 
"Family Dollar 3901",-71.431694,41.788166,"361 Reservoir Ave","","Cranston","RI","02907","","PROVIDENCE" 
"Plainfield Meat Market",-71.458954,41.812611,"600 Plainfield St","","Providence","RI","02909","4630","PROVIDENCE" 
"Save-A-Lot Inc 813",-71.364426,41.880352,"295 Armistice Blvd","","Pawtucket","RI","02861","","PROVIDENCE" 
"CVS Pharmacy 4096",-71.386826,41.883343,"305 Broad Street","","Central Falls","RI","02863","","PROVIDENCE" 
"Family Dollar 7972",-71.387337,41.891323,"839 Broad St","","Central Falls","RI","02863","2307","PROVIDENCE" 
"Pacific Seafood Market",-71.429291,41.790009,"247 Reservoir Ave","","Providence","RI","02907","3402","PROVIDENCE" 
"Aldi 41",-71.428818,41.83622,"539 Smith St","","Providence","RI","02908","4350","PROVIDENCE" 
"AJ's Variety",-71.468102,41.803528,"1031 Plainfield St","Ste 1","Johnston","RI","02919","6734","PROVIDENCE" 
"GI JOE'S VARIETY",-71.425858,41.835381,"445 Smith St","","Providence","RI","02908","4333","PROVIDENCE" 
"Citgo Gas",-71.437263,41.774452,"480 Pontiac Ave","","Cranston","RI","02910","3520","PROVIDENCE" 
"Sam's Club 6681",-71.496719,41.702496,"25 Pace Blvd","","Warwick","RI","02886","4244","KENT" 
"Walgreens 11128",-71.568909,41.680737,"875 Tiogue Ave","","Coventry","RI","02816","6300","KENT" 
"Family Dollar 8015",-71.56665,41.690563,"10 Coventry Shoppers Park","","Coventry","RI","02816","5777","KENT" 
"Shop-N-Go",-71.540764,41.883392,"115 Pleasant View Ave","Unit #9","Smithfield","RI","02917","2167","PROVIDENCE" 
"Mini Market La Esperanza",-71.388451,41.896748,"1234 Broad St","","Central Falls","RI","02863","1003","PROVIDENCE" 
"CVS Pharmacy 852",-71.542877,41.66304,"2250 New London Tpke","","Coventry","RI","02816","4411","KENT" 
"Family Dollar 3626",-71.354385,41.857559,"52 Newport Ave","","Rumford","RI","02916","2068","PROVIDENCE" 
"BJ's Wholesale Club 119",-71.550041,41.661583,"790 Centre of New England Blvd","","Coventry","RI","02816","6083","KENT" 
"BJ's Wholesale Club 306",-71.2948,41.518387,"173 E Main Rd","","Middletown","RI","02842","4938","NEWPORT" 
"A & E CONVENIENCE STORE",-71.454079,41.825409,"1119 Atwells Ave","","Providence","RI","02909","4144","PROVIDENCE" 
"Camden Mini Market",-71.426643,41.838978,"135 Camden Ave","","Providence","RI","02908","3605","PROVIDENCE" 
"Mateo Market LLC",-71.447578,41.811024,"3 Priscilla Ave","","Providence","RI","02909","3507","PROVIDENCE" 
"Schroder's Deli",-71.356323,41.775105,"204 Willett Ave","","Riverside","RI","02915","4299","PROVIDENCE" 
"1302 Marketplace Inc",-71.494255,41.808693,"1302 Atwood Ave","","Johnston","RI","02919","4902","PROVIDENCE" 
"La Perla Fruit-Meat Market",-71.435112,41.8162,"1543 Westminster St","","Providence","RI","02909","1806","PROVIDENCE" 
"Gulf Express #1",-71.458382,42.013809,"3 Pine Swamp Rd","","Cumberland","RI","02864","1001","PROVIDENCE" 
"Gulf Express",-71.390312,41.858765,"711 East Ave","","Pawtucket","RI","02860","6168","PROVIDENCE" 
"LaSalle Bakery Inc",-71.439468,41.849503,"685 Admiral St","","Providence","RI","02908","1402","PROVIDENCE" 
"7-Eleven Store 32509B 32509B",-71.806229,41.356701,"11 Post Rd","","Westerly","RI","02891","2604","WASHINGTON" 
"JD Stores",-71.355408,41.774704,"215 Willett Ave","","Riverside","RI","02915","4201","PROVIDENCE" 
"Sonnys  Convenience",-71.350586,41.770508,"548 Willett Ave","","Riverside","RI","02915","2656","PROVIDENCE" 
"Walgreens 03000",-71.299751,41.517101,"12 E Main Rd","","Middletown","RI","02842","4912","NEWPORT" 
"Krakow Deli Bakery Smokehouse",-71.501343,42.012539,"855 Social St","","Woonsocket","RI","02895","1383","PROVIDENCE" 
"Tedescos Sausage Shop",-71.474121,41.833199,"56 Greenville Ave","","Johnston","RI","02919","4214","PROVIDENCE" 
"Sams Food Store",-71.36496,41.892563,"151 Benefit St","","Pawtucket","RI","02861","1154","PROVIDENCE" 
"RI DEM/Division of Agriculture FM",-71.422501,41.660427,"354 Ives Rd","","East Greenwich","RI","02818","4608","KENT" 
"Rite Aid 6595",-71.447525,41.799332,"1011 Cranston St","","Cranston","RI","02920","7533","PROVIDENCE" 
"Pawtuxet Village Farmers Market",-71.394646,41.767693,"Rhodes Place","(parking lot)","Cranston","RI","02905","","PROVIDENCE" 
"Haines Park Farmers Market",-71.347343,41.755543,"Metropolitan Park Dr","Route 103","Riverside","RI","02915","2147","PROVIDENCE" 
"Moe Convenient Store LLC",-71.53157,41.680069,"71 Tiogue Ave","","West Warwick","RI","02893","6051","KENT" 
"Blanchards Farm & Deli",-71.579956,41.853069,"255 W Greenville Rd","","North Scituate","RI","02857","1113","PROVIDENCE" 
"Oasis Market",-71.419067,41.816383,"220 Broad St","","Providence","RI","02903","4029","PROVIDENCE" 
"Coventry Shell",-71.5476,41.696079,"642 Washington St","","Coventry","RI","02816","5480","KENT" 
"Fruit Hill Farmers Market",-71.437332,41.83931,"Fruit Hill Ave (Parking Lot)","at Rhode Island College","Providence","RI","02908","2802","PROVIDENCE" 
"Cumberland Farms 1108",-71.372002,41.499699,"41 North Rd","","Jamestown","RI","02835","1433","NEWPORT" 
"Cumberland Farms 1218",-71.252502,41.580547,"1812 E Main Rd","","Portsmouth","RI","02871","1236","NEWPORT" 
"Cumberland Farms 1254",-71.677666,41.509014,"PO Box 354","1175 Main St","Wyoming","RI","02898","","WASHINGTON" 
"Cumberland Farms 1262",-71.729935,41.351704,"3169 Old Post Rd","Box 1139","Charlestown","RI","02813","","WASHINGTON" 
"Cumberland Farms 1264",-71.284248,41.49234,"94 Aquidneck Ave","","Middletown","RI","02842","5610","NEWPORT" 
"CVS Pharmacy 8320",-71.699287,41.514507,"1187 Main St","","Wyoming","RI","02898","","WASHINGTON" 
"Walgreens 02246",-71.49897,41.662777,"1000 Division Rd","Unit 1","East Greenwich","RI","02818","2008","KENT" 
"Albion Food Mart",-71.090736,41.901707,"42 Main St","","Albion","RI","02802","","PROVIDENCE" 
"Oakland Mart",-71.398186,41.687023,"801 Oakland Beach Ave","","Warwick","RI","02889","9615","KENT" 
"Dollar Tree 3899",-71.480858,41.428387,"91 Point Judith Rd","Ste 6","Narragansett","RI","02882","3445","WASHINGTON" 
"EL VECINO GROCERY STORE",-71.412926,41.796741,"1035 Broad St","","Providence","RI","02905","1739","PROVIDENCE" 
"Chopmist Xtra Mart 1848",-71.670364,41.825539,"1045 Danielson Pike","","North Scituate","RI","02857","1572","PROVIDENCE" 
"CVS Pharmacy 409",-71.437416,41.487247,"1123 Boston Neck Rd","","Narragansett","RI","02882","1734","WASHINGTON" 
"West Kingston Xtra Mart 2970",-71.553474,41.483425,"3411 Kingstown Rd","","West Kingston","RI","02892","1404","WASHINGTON" 
"Plainfield Market Place",-71.450478,41.813648,"370 Plainfield St","","Providence","RI","02909","3708","PROVIDENCE" 
"Miami Mart Inc",-71.448593,41.825134,"935 Atwells Ave","","Providence","RI","02909","3121","PROVIDENCE" 
"Fresh to You, LLC-Farmer/Produce Route",-71.619637,41.900864,"69 Absalona Hill Rd","","Chepachet","RI","02814","1424","PROVIDENCE" 
"Sams Food Mart",-71.301247,41.515213,"356 W Main Rd","","Middletown","RI","02842","6328","NEWPORT" 
"7-Eleven 33176C 33176C",-71.398354,41.700954,"2078 W Shore Rd","","Warwick","RI","02889","8417","KENT" 
"West Warwick Farmers Market",-71.527473,41.701477,"20 Washington St","","West Warwick","RI","02893","4919","KENT" 
"I J Warwick LLC",-71.404579,41.72298,"1959 Warwick Ave","","Warwick","RI","02889","2420","KENT" 
"Phils Marketplace",-71.820427,41.372616,"114 Granite St","","Westerly","RI","02891","","WASHINGTON" 
"Stop & Shop Supercenter 2701",-71.355988,41.821968,"1925 Pawtucket Ave","Ste 1","East Providence","RI","02914","1642","PROVIDENCE" 
"Daves Marketplace 8",-71.521622,41.870209,"371 Putnam Pike","Ste 590","Smithfield","RI","02917","2451","PROVIDENCE" 
"B K  House of Cigars",-71.374771,41.887768,"530 Broadway","Ste 4","Pawtucket","RI","02860","1269","PROVIDENCE" 
"College Convenience Mart",-71.438919,41.849159,"664 Admiral St","","Providence","RI","02908","1406","PROVIDENCE" 
"Walgreens 10476",-71.500259,41.828812,"1583 Atwood Ave","","Johnston","RI","02919","3232","PROVIDENCE" 
"Walgreens 11633",-71.695969,41.513424,"1209 Main St","PO Box 250","Wyoming","RI","02898","0250","WASHINGTON" 
"Below Cost 1",-71.472321,41.788956,"480 Atwood Ave","","Cranston","RI","02920","5301","PROVIDENCE" 
"Three Flags Bakery",-71.388344,41.897018,"1255 Broad St","","Central Falls","RI","02863","1001","PROVIDENCE" 
"7-Eleven 23880C 23880C",-71.305878,41.483204,"29 Memorial Blvd","","Newport","RI","02840","3637","NEWPORT" 
"Toms Market",-71.278259,41.729958,"137 Child St","","Warren","RI","02885","2704","BRISTOL" 
"JD Convenience",-71.315018,41.48811,"202 Thames St","Unit 1","Newport","RI","02840","6600","NEWPORT" 
"Matos Bakery Inc 2",-71.52404,41.704697,"1236 Main St","","West Warwick","RI","02893","4828","KENT" 
"Take & Bake Express",-71.4925,42.000427,"413 Cumberland Hill Rd","","Woonsocket","RI","02895","","PROVIDENCE" 
"Andellas Boulevard Meats",-71.350075,41.877518,"627 Armistice Blvd","","Pawtucket","RI","02861","2649","PROVIDENCE" 
"Sandras Meat Market",-71.370987,41.812267,"1024 S Broadway","","East Providence","RI","02914","4713","PROVIDENCE" 
"LEO'S MARKET LLC",-71.309517,41.493885,"162 Broadway","","Newport","RI","02840","2747","NEWPORT" 
"Sikay Lao Thai Market",-71.438782,41.832493,"952 Chalkstone Ave","","Providence","RI","02908","4203","PROVIDENCE" 
"Polonia Market",-71.372139,41.892891,"736 Broadway","","Pawtucket","RI","02861","1027","PROVIDENCE" 
"Daily Catch Seafood",-71.531219,41.872421,"9 Cedar Swamp Rd","","Smithfield","RI","02917","","PROVIDENCE" 
"Family Dollar 8208",-71.669266,41.913132,"1155 Putnam Pike","","Chepachet","RI","02814","1960","PROVIDENCE" 
"Smith St Express",-71.472893,41.854671,"1815 Smith St","","North Providence","RI","02911","1919","PROVIDENCE" 
"BMC Convenience",-71.444679,41.802086,"905 Cranston St","","Cranston","RI","02920","7843","PROVIDENCE" 
"Coastal Growers' Market",-71.48513,41.573109,"650 Ten Rod Rd","Lafayette Mill","N Kingstown","RI","02852","","WASHINGTON" 
"Khout Gas",-71.428879,41.831158,"691 Valley St","","Providence","RI","02908","5615","PROVIDENCE" 
"Smith St Shell",-71.461441,41.850185,"1525 Smith St","Ste 1","North Providence","RI","02911","2959","PROVIDENCE" 
"Aldi 36",-71.447708,41.799095,"1015 Cranston St","","Cranston","RI","02920","7533","PROVIDENCE" 
"Family Dollar 8177",-71.428955,41.836208,"541 Smith St","","Providence","RI","02908","4350","PROVIDENCE" 
"Big Apple Convenience Store",-71.38369,41.814621,"85 Burgess Ave","","East Providence","RI","02914","5201","PROVIDENCE" 
"Rite Aid 10217",-71.305832,41.738266,"236 County Rd","","Barrington","RI","02806","4514","BRISTOL" 
"Rite Aid 10218",-71.263542,41.694332,"580 Metacom Ave","","Bristol","RI","02809","5182","BRISTOL" 
"Rite Aid 10219",-71.559242,41.68338,"719 Tiogue Ave","","Coventry","RI","02816","5803","KENT" 
"Rite Aid 10223",-71.468163,41.633492,"5945 Post Rd","","North Kingstown","RI","02852","1301","WASHINGTON" 
"Rite Aid 10225",-71.452377,41.570412,"63 Brown St","","North Kingstown","RI","02852","5053","WASHINGTON" 
"Rite Aid 10226",-71.573563,41.836288,"47 Village Plaza Way","","North Scituate","RI","02857","1849","PROVIDENCE" 
"Rite Aid 10231",-71.441765,41.952484,"2136 Mendon Rd","","Cumberland","RI","02864","3805","PROVIDENCE" 
"Rite Aid 10232",-71.246429,41.611465,"3034 East Main Rd","","Portsmouth","RI","02871","4205","NEWPORT" 
"Rite Aid 10233",-71.251572,41.597034,"2456 East Main Rd","","Portsmouth","RI","02871","4025","NEWPORT" 
"Rite Aid 10234",-71.564972,41.997009,"900 Victory Hwy","","Slatersville","RI","02876","0713","PROVIDENCE" 
"Rite Aid 10236",-71.488564,41.441631,"604 Kingstown Rd","","Wakefield","RI","02879","3612","WASHINGTON" 
"Rite Aid 10238",-71.482834,41.431133,"20 Woodruff Ave","","Narragansett","RI","02882","3423","WASHINGTON" 
"Rite Aid 10239",-71.49115,41.708416,"1080 Bald Hill Rd","","Warwick","RI","02886","4202","KENT" 
"Rite Aid 10240",-71.407394,41.743584,"1201 Warwick Ave","","Warwick","RI","02888","4108","KENT" 
"Rite Aid 10246",-71.687042,41.511288,"21 Kingstown Rd","","Richmond","RI","02898","1101","WASHINGTON" 
"Rite Aid 10255",-71.461334,41.85001,"1510 Smith St","","North Providence","RI","02911","2918","PROVIDENCE" 
"Rite Aid 10259",-71.533661,41.870224,"452 Putnam Pike","","Greenville","RI","02828","3008","PROVIDENCE" 
"Rite Aid 10260",-71.498055,41.821342,"1459 Atwood Ave","","Johnston","RI","02919","7706","PROVIDENCE" 
"Rite Aid 10262",-71.472855,41.782364,"250 Atwood Ave","","Cranston","RI","02920","4053","PROVIDENCE" 
"Rite Aid 10245",-71.510094,42.007298,"200 Social St","","Woonsocket","RI","02895","2058","PROVIDENCE" 
"Cumberland Shell 05001",-71.478943,41.985332,"4120 Mendon Rd","","Cumberland","RI","02864","1861","PROVIDENCE" 
"P & E African Market",-71.354256,41.878353,"539 Armistice Blvd","","Pawtucket","RI","02861","2629","PROVIDENCE" 
"Tienda El Paisano LLC",-71.465179,41.805588,"928 Plainfield St","","Johnston","RI","02919","6728","PROVIDENCE" 
"Anthony Grocery Store",-71.449532,41.825077,"964A Atwells Ave","","Providence","RI","02909","3104","PROVIDENCE" 
"Country Farms",-71.645699,41.948627,"86 Mapleville Main St","","Mapleville","RI","02839","1194","PROVIDENCE" 
"STEP BY STEP MART",-71.190292,41.661663,"429 Main Rd","","Tiverton","RI","02878","1369","NEWPORT" 
"Go Local - A Farmers & Artisans Market FM",-71.318481,41.748661,"461 Country Rd","Barrington Congregational Church","Barrington","RI","02806","2423","BRISTOL" 
"Flor Di Brava",-71.409012,41.877632,"593 Weeden St.","units 9,10","Pawtucket","RI","02860","","PROVIDENCE" 
"Hess 39502",-71.400795,41.853573,"1215 N Main St","","Providence","RI","02904","1825","PROVIDENCE" 
"Hess 39209",-71.410927,41.858154,"440 Smithfield Ave","","Providence","RI","02904","1546","PROVIDENCE" 
"Hess 39207",-71.29705,41.526608,"864 W Main Rd","","Middletown","RI","02842","6315","NEWPORT" 
"Hess 39204",-71.501404,41.711567,"346 Providence St","","West Warwick","RI","02893","2023","KENT" 
"Hess 39203",-71.409607,41.703598,"2400 W Shore Rd","","Warwick","RI","02889","8848","KENT" 
"North Tiverton News",-71.184608,41.672615,"15 Main Rd","","Tiverton","RI","02878","1023","NEWPORT" 
"El Pulgarcito Grocery Convenience Store",-71.443932,41.828205,"128 Academy Ave","","Providence","RI","02908","4523","PROVIDENCE" 
"Hess 39211",-71.146484,41.630505,"1308 Stafford Rd","","Tiverton","RI","02878","2563","NEWPORT" 
"SP Varieties Inc",-71.458748,41.818638,"451 Hartford Ave","","Providence","RI","02909","5132","PROVIDENCE" 
"Stop & Shop 736",-71.80864,41.35762,"149 Franklin St","","Westerly","RI","02891","3132","WASHINGTON" 
"B D Food Mart",-71.756821,41.854149,"189A Hartford Pike","","Foster","RI","02825","1910","PROVIDENCE" 
"Paone Seafood",-71.527069,41.680744,"16 Tiogue Ave","","West Warwick","RI","02893","6031","KENT" 
"Tonys Cumberland Market Inc",-71.392822,41.905888,"290 Broad St","","Cumberland","RI","02864","8103","PROVIDENCE" 
"Hess Express 39206",-71.507545,41.868698,"263 Putnam Pike","","Smithfield","RI","02917","2718","PROVIDENCE" 
"Hess Express 39208",-71.424896,41.525948,"1820 Boston Neck Rd","","North Kingstown","RI","02852","","WASHINGTON" 
"Tesoro Market",-71.500549,42.015007,"1047 Social St","","Woonsocket","RI","02895","1381","PROVIDENCE" 
"BJ's Wholesale Club 208",-71.523575,41.825615,"200 Stonehill Dr","","Johnston","RI","02919","","PROVIDENCE" 
"Station One",-71.458061,41.825916,"524 Manton Ave","","Providence","RI","02909","5014","PROVIDENCE" 
"Moons Market",-71.464378,41.782845,"1478 Park Ave","","Cranston","RI","02920","6629","PROVIDENCE" 
"Pick N Pay Food Mart",-71.55352,41.872135,"615 Putnam Pike","","Greenville","RI","02828","2137","PROVIDENCE" 
"Davis Park Farmers Market",-71.452789,41.832443,"Chalkstone Ave","Davis Park","Providence","RI","02908","","PROVIDENCE" 
"Aquidneck Growers  Market",-71.27314,41.529728,"909 East Main Road","","Middletown","RI","02842","","NEWPORT" 
"CVS Pharmacy 1414",-71.478119,41.737076,"1195 Oaklawn Ave","","Cranston","RI","02920","2620","PROVIDENCE" 
"CVS Pharmacy 2506",-71.40358,41.945553,"2125 Diamond Hill Rd","","Cumberland","RI","02864","5134","PROVIDENCE" 
"CVS Pharmacy 7387",-71.354546,41.858185,"63 Newport Ave","","Rumford","RI","02916","2020","PROVIDENCE" 
"Xtra Mart - Mobil Station 1",-71.3993,41.924896,"830 High St","","Cumberland","RI","02864","6501","PROVIDENCE" 
"Gulf Express",-71.372673,41.891895,"698 Broadway","","Pawtucket","RI","02860","1148","PROVIDENCE" 
"Hess Express 39202",-71.50058,41.789986,"1783 Plainfield Pike","","Johnston","RI","02919","5919","PROVIDENCE" 
"Coventry Mart",-71.56382,41.690735,"1100 Main St","","Coventry","RI","02816","5756","KENT" 
"Dollar Tree 4421",-71.278397,41.692738,"10 Gooding Ave","","Bristol","RI","02809","2610","BRISTOL" 
"Diana Market",-71.430992,41.821606,"115 Knight St","","Providence","RI","02909","1309","PROVIDENCE" 
"Cumberland Farms, Inc 1263",-71.260269,41.679642,"390 Metacom Ave","Unit 1","Bristol","RI","02809","5173","BRISTOL" 
"Cumberland Farms, Inc 1284",-71.523529,41.485188,"99 Fortin Rd","Ste 1A","Kingston","RI","02881","","WASHINGTON" 
"Cumberland Farms, Inc 1217",-71.468452,41.640903,"5687 Post Rd","","E Greenwich","RI","02818","3441","KENT" 
"Cumberland Farms, Inc 1257",-71.493309,41.607464,"3323 S County Trl","","E Greenwich","RI","02818","1434","KENT" 
"CVS Pharmacy  827",-71.400803,41.830021,"291 Thayer St","","Providence","RI","02906","1524","PROVIDENCE" 
"CVS Pharmacy  1544",-71.808601,41.357597,"151 Franklin St","","Westerly","RI","02891","3132","WASHINGTON" 
"CVS Pharmacy  2049",-71.423241,41.774139,"100 Francis St","","Providence","RI","02910","2212","PROVIDENCE" 
"Cabo Verde Fish Market",-71.391617,41.868404,"268 West Ave","","Pawtucket","RI","02860","3741","PROVIDENCE" 
"CVS Pharmacy 76",-71.515938,41.788631,"1993 Plainfield Pike","","Johnston","RI","02919","5707","PROVIDENCE" 
"Wallys Market",-71.511803,42.000248,"198 Front St","","Woonsocket","RI","02895","5206","PROVIDENCE" 
"R.i. Beef & Veal Inc. 1",-71.482552,41.843052,"60 Armento St","","Johnston","RI","02919","2735","PROVIDENCE" 
"Cibao Mini Market",-71.413094,41.801701,"456 Prairie Ave","","Providence","RI","02905","2029","PROVIDENCE" 
"Hess Express 39210",-71.562279,41.682171,"764 Tiogue Ave","","Coventry","RI","02816","5806","KENT" 
"Los Compadres Market LLC",-71.422226,41.8013,"93 Laura St","","Providence","RI","02907","1610","PROVIDENCE" 
"Dollar Tree 4432",-71.533592,41.870193,"446 Putnam Pike","Unit 1","Greenville","RI","02828","3027","PROVIDENCE" 
"Rumford Irving",-71.361961,41.831001,"411 N Broadway","","Rumford","RI","02916","3515","PROVIDENCE" 
"P-Town Supermarket",-71.422569,41.841454,"288 Chad Brown St","","Providence","RI","02908","3112","PROVIDENCE" 
"Best Way Gas",-71.393173,41.906849,"302 Broad St","","Cumberland","RI","02864","8104","PROVIDENCE" 
"V Mart LLC",-71.423477,41.7887,"176 Narragansett Ave","","Providence","RI","02907","3367","PROVIDENCE" 
"Emmanuels Bakery & Taqueria LLP",-71.458054,41.800266,"492 Dyer Ave","","Cranston","RI","02920","","PROVIDENCE" 
"Family Dollar 8425",-71.268959,41.71957,"601 Metacom Ave","Unit 1","Warren","RI","02885","2831","BRISTOL" 
"Park Avenue Gas Station Inc",-71.443405,41.782097,"1025 Park Ave","","Cranston","RI","02910","3204","PROVIDENCE" 
"Hartford Convenience",-71.454811,41.817802,"344 Hartford Ave","","Providence","RI","02909","5103","PROVIDENCE" 
"Ashaway Mart",-71.784386,41.425259,"216 Main St","","Ashaway","RI","02804","2009","WASHINGTON" 
"Spiceland",-71.354103,41.894051,"1516 Newport Ave","","Pawtucket","RI","02861","1343","PROVIDENCE" 
"Elmwood Deluxe Mart Inc",-71.424652,41.795387,"610A Elmwood Ave","","Providence","RI","02907","3351","PROVIDENCE" 
"Eastside Mart",-71.390602,41.834282,"422 Lloyd Ave","","Providence","RI","02906","4548","PROVIDENCE" 
"Warwick Shell",-71.403152,41.701836,"2211 W Shore Rd","","Warwick","RI","02889","8428","KENT" 
"Taste of Europe",-71.352821,41.878265,"560 Armistice Blvd","","Pawtucket","RI","02861","2630","PROVIDENCE" 
"Hess Express 39506",-71.423897,41.747818,"1112 Post Rd","","Warwick","RI","02888","3328","KENT" 
"Hess 39214",-71.440384,41.866756,"1394 Mineral Spring Ave","","North Providence","RI","02904","4506","PROVIDENCE" 
"Hess 39212",-71.698486,41.514328,"1190 Main St","gas station","Wyoming","RI","02898","1074","WASHINGTON" 
"Hess 39201",-71.409683,41.733429,"61 Airport Rd","","Warwick","RI","02889","1001","KENT" 
"Diamond Hill Convenience Store 02",-71.402046,41.952667,"2275 Diamond Hill Rd","","Cumberland","RI","02864","5104","PROVIDENCE" 
"Dollar Tree 4523",-71.515678,41.984379,"1412 Park Ave","","Woonsocket","RI","02895","6557","PROVIDENCE" 
"624 Cranston Meat Market Inc",-71.43586,41.806751,"624 Cranston St","","Providence","RI","02907","2836","PROVIDENCE" 
"Washingting Street Market, Inc/  O G Mart",-71.414841,41.822899,"130 Washington St","","Providence","RI","02903","3306","PROVIDENCE" 
"Jamestown Mist",-71.369812,41.496239,"35 Narragansett Ave","","Jamestown","RI","02835","1114","NEWPORT" 
"Milanos Pizza/Olives Deli",-71.433014,41.837437,"659 Smith St","","Providence","RI","02908","4352","PROVIDENCE" 
"7-Eleven 27668L",-71.427193,41.840927,"391 Douglas Ave","","Providence","RI","02908","2511","PROVIDENCE" 
"Tase-Rite Co Inc",-71.499069,41.450996,"1211 Kingstown Rd","","Wakefield","RI","02879","2441","WASHINGTON" 
"City Gas",-71.425156,41.805847,"253 Elmwood Ave","","Providence","RI","02907","1548","PROVIDENCE" 
"Daves Marketplace 9",-71.566643,41.690632,"23 Coventry Shoppers Park","","Coventry","RI","02816","5702","KENT" 
"CRESPO GROCERY",-71.410927,41.795113,"1115 Broad St","","Providence","RI","02905","1616","PROVIDENCE" 
"Erick Market & More Inc",-71.392387,41.890869,"156 Washington St","","Central Falls","RI","02863","2038","PROVIDENCE" 
"Yeyo Market",-71.45517,41.795895,"116 Chestnut Hill Ave","","Cranston","RI","02920","7102","PROVIDENCE" 
"Diggers Catch Seafood",-71.363495,41.82803,"537 N Broadway","","East Providence","RI","02914","2130","PROVIDENCE" 
"Mirae Market",-71.439545,41.782375,"602 Reservoir Ave","","Cranston","RI","02910","1604","PROVIDENCE" 
"Lees Convenience Store",-71.50251,42.009644,"628 Social St","","Woonsocket","RI","02895","2027","PROVIDENCE" 
"Richmond Gas & Convenient Inc - Richmond Mobil",-71.695435,41.513317,"1214 Main St","","Wyoming","RI","02898","1074","WASHINGTON" 
"7-Eleven 32508C",-71.310455,41.492916,"95 Broadway","","Newport","RI","02840","2745","NEWPORT" 
"Pia Dia Convenience",-71.510078,42.002232,"11 Hamlet Ave","","Woonsocket","RI","02895","4407","PROVIDENCE" 
"Quality Meats And Deli",-71.420631,41.808262,"583 Broad St","","Providence","RI","02907","1404","PROVIDENCE" 
"Four Corners Food Mart Inc",-71.370155,41.813572,"327 Warren Ave","","East Providence","RI","02914","3845","PROVIDENCE" 
"Foster Xtra Mart 2885",-71.785713,41.797947,"188 Danielson Pike","","Foster","RI","02825","1309","PROVIDENCE" 
"CVS Pharmacy 15003",-71.271667,41.67149,"173 State St","","Bristol","RI","02809","2205","BRISTOL" 
"North Providence Farmers Market",-71.393524,41.820183,"1 Governor Notte Parkway","Off 1675 Douglas Avenue@Gov Notte Park","North Providence","RI","02904","","PROVIDENCE" 
"Kingstown Mobil",-71.461388,41.62759,"6228 Post Rd","","North Kingstown","RI","02852","1855","WASHINGTON" 
"New Urban Farmers Market",-71.404488,41.877136,"483 Weeden St","","Pawtucket","RI","02860","1719","PROVIDENCE" 
"East Lake Variety Inc",-71.15873,41.569412,"750A East Rd","","Tiverton","RI","02878","3517","NEWPORT" 
"Carcieri's Stop And Compare",-71.420059,41.851261,"567 Charles St","","Providence","RI","02904","2281","PROVIDENCE" 
"Garden Hills Fruit & Deli Inc",-71.477592,41.751717,"763 Oaklawn Ave","","Cranston","RI","02920","2814","PROVIDENCE" 
"J Mart",-71.361366,41.770321,"332 Bullocks Point Ave","","Riverside","RI","02915","4403","PROVIDENCE" 
"Silvas Fish Market",-71.374641,41.814953,"233 Warren Ave","","East Providence","RI","02914","4838","PROVIDENCE" 
"Ammouri Gas & Food Mart",-71.278946,41.687515,"1064 Hope St","","Bristol","RI","02809","1188","BRISTOL" 
"Sams Food Store",-71.517525,41.713814,"119 E Main St","","West Warwick","RI","02893","3635","KENT" 
"International Express Market",-71.448158,41.807983,"243B Webster Ave","","Providence","RI","02909","3821","PROVIDENCE" 
"Istanbul Gourmet Market LLC",-71.45372,41.863071,"1706 Mineral Spring Ave","","North Providence","RI","02904","3916","PROVIDENCE" 
"West Warwick Shell",-71.522079,41.707863,"6 Providence St","","West Warwick","RI","02893","3711","KENT" 
"Vida Sana Natural Health Food LLC",-71.404984,41.789879,"1359 Broad St","","Providence","RI","02905","2831","PROVIDENCE" 
"7-Eleven 35008",-71.399719,41.890072,"603 Hunt St","","Central Falls","RI","02863","1828","PROVIDENCE" 
"Elamani Enterprises Inc - A&B Mart",-71.444344,41.758793,"951 Pontiac Ave","","Cranston","RI","02920","7905","PROVIDENCE" 
"Mega Milk Mart",-71.378654,41.714096,"1243 W Shore Rd","","Warwick","RI","02889","3318","KENT" 
"Shop And Go Food Market",-71.443848,41.80777,"216 Union Ave","","Providence","RI","02909","3030","PROVIDENCE" 
"Encuentro Deli & Grocery",-71.372536,41.892139,"710 Broadway","","Pawtucket","RI","02860","1148","PROVIDENCE" 
"Julian Market",-71.445076,41.821911,"100 Julian St","","Providence","RI","02909","2620","PROVIDENCE" 
"Stop & Shop 2702",-71.405304,41.768131,"275 Warwick Ave","","Cranston","RI","02905","2515","PROVIDENCE" 
"Elsies Baked Goods & More Inc",-71.268959,41.71957,"601 Metacom Ave","Unit 2","Warren","RI","02885","2831","BRISTOL" 
"Gold Mart Convenience Store",-71.353951,41.894253,"1531 Newport Ave","","Pawtucket","RI","02861","1356","PROVIDENCE" 
"Dollar Tree 4632",-71.446983,41.854671,"19 Smithfield Rd","Ste 1","North Providence","RI","02904","5380","PROVIDENCE" 
"Walgreens 13987",-71.366905,41.886642,"385 Cottage St","","Pawtucket","RI","02861","1603","PROVIDENCE" 
"Plainfield Pike Mobil",-71.510086,41.788658,"1897 Plainfield Pike","","Johnston","RI","02919","5710","PROVIDENCE" 
"CVS Pharmacy 5868",-71.400185,41.777534,"1776 Broad St","","Cranston","RI","02905","3520","PROVIDENCE" 
"Melville Xtra Mart 1855",-71.271149,41.577438,"1568 W Main Rd","","Portsmouth","RI","02871","1323","NEWPORT" 
"Coventry Xtra Mart 7865",-71.566963,41.68116,"851 Tiogue Ave","","Coventry","RI","02816","5810","KENT" 
"Willet Ave Xtra Mart 7300",-71.346771,41.759335,"973 Willett Ave","","Riverside","RI","02915","2032","PROVIDENCE" 
"Amoriggis Quality Seafood",-71.472237,41.832993,"23A Greenville Ave","","Johnston","RI","02919","4213","PROVIDENCE" 
"CVS Pharmacy 5107",-71.497696,41.661594,"1285 S County Trl","","East Greenwich","RI","02818","1620","KENT" 
"Dollar Tree 4792",-71.499985,41.790085,"1776 Plainfield Pike","","Cranston","RI","02921","2042","PROVIDENCE" 
"Jolof Market",-71.373734,41.889771,"618 Broadway","","Pawtucket","RI","02860","1233","PROVIDENCE" 
"Gulf Express",-71.377838,41.714348,"1196 W Shore Rd","","Warwick","RI","02889","3364","KENT" 
"Super Star Mini Mart",-71.422646,41.821449,"163 Broadway","","Providence","RI","02903","3013","PROVIDENCE" 
"Spices N Things",-71.440109,41.866837,"1388 Mineral Spring Ave","Unit 1","North Providence","RI","02904","4649","PROVIDENCE" 
"Rossi's Coldcuts & Deli",-71.476677,41.855267,"1877 Smith St","","North Providence","RI","02911","1903","PROVIDENCE" 
"Keur Baye International",-71.500397,42.015625,"1078 Social Street","","Woonsocket","RI","02895","","PROVIDENCE" 
"Ocean State Job Lot 120",-71.423683,41.770771,"1441 Elmwood Ave","","Cranston","RI","02910","3849","PROVIDENCE" 
"Ocean State Job Lot 109",-71.431694,41.788166,"361 Reservoir Ave","","Providence","RI","02907","","PROVIDENCE" 
"Ocean State Job Lot 107",-71.395111,41.862045,"470 Pawtucket Ave","","Pawtucket","RI","02860","5662","PROVIDENCE" 
"Marotta Food Corp  DBA/ C-Town Supermarket",-71.391907,41.880013,"300 Barton St","","Pawtucket","RI","02860","2918","PROVIDENCE" 
"Convenience Plus",-71.514992,41.696026,"177 Legris Ave","","West Warwick","RI","02893","2930","KENT" 
"Family Dollar 8896",-71.46756,41.833992,"921 Manton Ave","","Providence","RI","02909","5627","PROVIDENCE" 
"Ocean State Job Lot 103",-71.487343,41.441689,"36 Old Tower Hill Rd","","Wakefield","RI","02879","3724","WASHINGTON" 
"Ocean State Jog Lot 116",-71.687325,41.513302,"12 Stilson Rd","","Wyoming","RI","02898","1026","WASHINGTON" 
"Ocean State Job Lot 104",-71.581993,41.679077,"1173 Tiogue Ave","","Coventry","RI","02816","6108","KENT" 
"Ocean State Job Lot 112",-71.407837,41.741394,"1290 Warwick Ave","","Warwick","RI","02888","5017","KENT" 
"Ocean State Job Lot 110",-71.268959,41.71957,"601 Metacom Ave","Unit 1","Warren","RI","02885","2831","BRISTOL" 
"Ocean State Job Lot 113",-71.481552,42.015827,"1500 Diamond Hill Rd","Ste 1","Woonsocket","RI","02895","","PROVIDENCE" 
"Casairo Market",-71.501312,41.449448,"471 High St","","Wakefield","RI","02879","2928","WASHINGTON" 
"Ocean State Job Lot 114",-71.290688,41.519779,"282 E Main Rd","","Middletown","RI","02842","5215","NEWPORT" 
"Ocean State Job Lot 117",-71.515678,41.984379,"1412 Park Ave","","Woonsocket","RI","02895","6557","PROVIDENCE" 
"Ocean State Job Lot 118",-71.430687,41.702209,"3030 W Shore Rd","","Warwick","RI","02886","7508","KENT" 
"Ocean State Job Lot 119",-71.804718,41.356117,"20 Post Rd","","Westerly","RI","02891","2605","WASHINGTON" 
"Las Delicias Bakery",-71.449577,41.825108,"964 Atwells Ave","","Providence","RI","02909","3104","PROVIDENCE" 
"Ocean State Job Lot 111",-71.468979,41.631836,"64 Frenchtown Rd","","North Kingstown","RI","02852","1758","WASHINGTON" 
"Emely Party Store & Bakery LLC",-71.420624,41.808708,"568 Broad St","","Providence","RI","02907","1445","PROVIDENCE" 
"U Save Gas Inc",-71.352325,41.892014,"469 Benefit St","","Pawtucket","RI","02861","1301","PROVIDENCE" 
"Ocean State Job Lot 102",-71.480446,41.935402,"622 George Washington Hwy","Ste 403","Lincoln","RI","02865","4274","PROVIDENCE" 
"Ocean State Job Lot 121",-71.503151,41.824905,"1493 Hartford Ave","","Johnston","RI","02919","3224","PROVIDENCE" 
"Cuisine Del Mar",-71.399979,41.879551,"445 Lonsdale Ave","","Pawtucket","RI","02860","1848","PROVIDENCE" 
"Colbea Enterprises LLC - Rotary Shell",-71.317642,41.506332,"138 Connell Hwy","","Newport","RI","02840","1314","NEWPORT" 
"Willett Farms",-71.356461,41.775021,"185 Willett Ave","","Riverside","RI","02915","4226","PROVIDENCE" 
"Smittys Seafood Market Inc",-71.404678,41.758438,"641 Warwick Ave","","Warwick","RI","02888","2602","KENT" 
"Toms Market of Tiverton Inc",-71.190842,41.660435,"492 Main Rd","","Tiverton","RI","02878","1317","NEWPORT" 
"AEW Market Inc",-71.414871,41.821384,"385 Westminster St","Ste 1","Providence","RI","02903","3233","PROVIDENCE" 
"Alltown Warwick",-71.490089,41.710331,"1050 Bald Hill Rd","","Warwick","RI","02886","0724","KENT" 
"Fertile Underground Grocery",-71.435738,41.816116,"1577 Westminster St","","Providence","RI","02909","1808","PROVIDENCE" 
"Captain's Catch Inc",-71.460121,41.698818,"1 Centerville Rd","","Warwick","RI","02886","6921","KENT" 
"AM Performance Petroleum Market",-71.44622,41.800789,"964 Cranston St","","Cranston","RI","02920","5413","PROVIDENCE" 
"El Encanto Market Inc",-71.455429,41.813183,"508 Plainfield St","","Providence","RI","02909","4450","PROVIDENCE" 
"Cityline Convenience",-71.394936,41.785645,"1015 Narragansett Blvd","","Cranston","RI","02905","4224","PROVIDENCE" 
"Sarkis Auto Repairs",-71.354103,41.894024,"1514 Newport Ave","","Pawtucket","RI","02861","1341","PROVIDENCE" 
"Your Corner Store",-71.404129,41.838867,"110 Doyle Ave","","Providence","RI","02906","1757","PROVIDENCE" 
"Sunoco",-71.380928,41.873268,"81 School St","","Pawtucket","RI","02860","4203","PROVIDENCE" 
"La Guira Meat Market Inc",-71.461395,41.819046,"531 Hartford Ave","","Providence","RI","02909","5847","PROVIDENCE" 
"7 Eleven (33614B) 33614B",-71.482269,41.796154,"1394 Plainfield St","","Cranston","RI","02920","2537","PROVIDENCE" 
"Sunnyhill Farm/DBA Ambe Corp",-71.471436,41.819607,"780 Hartford Ave","","Johnston","RI","02919","5405","PROVIDENCE" 
"280, Llc",-71.447609,41.813931,"280 Plainfield St","","Providence","RI","02909","3704","PROVIDENCE" 
"Nathalie Enterprise Llc",-71.45784,41.812809,"574 Plainfield St","","Providence","RI","02909","4629","PROVIDENCE" 
"Madina Halal Market",-71.514633,42.002197,"114 Main St","","Woonsocket","RI","02895","4315","PROVIDENCE" 
"Douglas Food Mart",-71.421761,41.837025,"175 Douglas Ave","","Providence","RI","02908","3702","PROVIDENCE" 
"La Poblanita Market",-71.444427,41.832184,"273 Academy Ave","","Providence","RI","02908","4144","PROVIDENCE" 
"Kandel Food Shops",-71.386955,41.884411,"390 Broad St","","Central Falls","RI","02863","3013","PROVIDENCE" 
"Morenos Meat Market 1",-71.425781,41.835133,"580 Chalkstone Ave","","Providence","RI","02908","4335","PROVIDENCE" 
"Medina Meat Market Llc",-71.444389,41.851341,"838 Admiral St","","Providence","RI","02904","1903","PROVIDENCE" 
"Mobil On The Run (2742) 2742",-71.457764,41.702103,"91 Veterans Memorial Dr","","Warwick","RI","02886","4617","KENT" 
"Alltown Westerly",-71.819183,41.367188,"10 East Ave","","Westerly","RI","02891","3108","WASHINGTON" 
"Lil General 30",-71.410057,41.903919,"259 Front St","","Lincoln","RI","02865","2035","PROVIDENCE" 
"Taunton Ave Irving",-71.375511,41.819649,"155 Taunton Ave","","East Providence","RI","02914","4530","PROVIDENCE" 
"Kejetia Africian Market",-71.37635,41.884369,"397 Broadway","","Pawtucket","RI","02860","1306","PROVIDENCE" 
"Omar Trading Inc",-71.453049,41.863255,"1700 Mineral Spring Ave","","North Providence","RI","02904","3902","PROVIDENCE" 
"M & R Convenience Inc",-71.389107,41.868843,"191 Pawtucket Ave","","Pawtucket","RI","02860","3812","PROVIDENCE" 
"Farm Fresh RI / Veggie Box",-71.399315,41.86301,"1005 Main St","Unit 1220","Pawtucket","RI","02860","7804","PROVIDENCE" 
"Route 2 Associates Ltd Sunoco",-71.500526,41.683205,"425 Quaker Ln","","West Warwick","RI","02893","2114","KENT" 
"J & M Sunoco",-71.386009,41.702179,"1710 W Shore Rd","","Warwick","RI","02889","4927","KENT" 
"Dollar Tree 4965",-71.355766,41.887615,"700 Central Ave","","Pawtucket","RI","02861","2102","PROVIDENCE" 
"Ciao Italia Bakery Inc",-71.484787,41.839142,"269 Greenville Ave","Unit 1","Johnston","RI","02919","2656","PROVIDENCE" 
"Veterans Market",-71.555725,41.676243,"182 Arnold Rd","","Coventry","RI","02816","5642","KENT" 
"Divozzi Italian Bakery",-71.522125,41.714314,"27 Pike St","","West Warwick","RI","02893","3611","KENT" 
"Newport Ave BP",-71.354065,41.887035,"1197 Newport Ave","","Pawtucket","RI","02861","2109","PROVIDENCE" 
"J & M Convenience Store",-71.461929,41.811131,"718 Plainfield St","","Providence","RI","02909","5310","PROVIDENCE" 
"Exeter Variety Store Inc",-71.533684,41.546738,"250C S County Trl","","Exeter","RI","02822","3500","WASHINGTON" 
"Food Mart & Smoke Shop",-71.504303,41.711975,"297 Providence St","","West Warwick","RI","02893","2014","KENT" 
"Capital Gulf",-71.418205,41.832359,"201 Smith St","","Providence","RI","02908","4930","PROVIDENCE" 
"Honeys Market",-71.446999,41.811985,"49 Bancroft St","","Providence","RI","02909","3519","PROVIDENCE" 
"Al-Mall Mini Mart",-71.401558,41.776459,"41 Warwick Ave","","Cranston","RI","02905","3522","PROVIDENCE" 
"Grassos Olenyville Gulf",-71.444389,41.816448,"35 Plainfield St","","Providence","RI","02909","3404","PROVIDENCE" 
"Fast Freddies Smithfield 208",-71.534363,41.870308,"471 Putnam Pike","","Greenville","RI","02828","3004","PROVIDENCE" 
"Fast Freddies Jefferson Blvd 218",-71.435951,41.753178,"15 Jefferson Blvd","","Warwick","RI","02888","1034","KENT" 
"Fast Freddies Post Road 210",-71.438675,41.727219,"2003 Post Rd","","Warwick","RI","02886","1538","KENT" 
"Speedy Mart",-71.40284,41.774773,"95 Warwick Ave","","Cranston","RI","02905","3539","PROVIDENCE" 
"Caribe Mini Market, Llc",-71.420334,41.853165,"615 Charles St","","Providence","RI","02904","1345","PROVIDENCE" 
"Elmwood Avenue Shell",-71.422333,41.812534,"5 Elmwood Ave","","Providence","RI","02907","2416","PROVIDENCE" 
"Ocean State Market",-71.457848,41.805408,"341 Dyer Ave","","Cranston","RI","02920","7006","PROVIDENCE" 
"Family Convenience Grocery Store",-71.412369,41.799995,"512 Prairie Ave","","Providence","RI","02905","1721","PROVIDENCE" 
"Fuel N' Go",-71.398689,41.873035,"168 Lonsdale Ave","","Pawtucket","RI","02860","3573","PROVIDENCE" 
"The Good Earth Organic Gardening Center",-71.536125,41.771458,"1800 Scituate Ave","","Hope","RI","02831","1879","PROVIDENCE" 
"Slater Park Pawtucket Farmers Market",-71.347572,41.877033,"675 Armistice Blvd","","Pawtucket","RI","02861","2744","PROVIDENCE" 
"Neutaconkanut Farmers Market",-71.462372,41.810089,"760 Plainfield St","","Providence","RI","02909","5312","PROVIDENCE" 
"Thundermist West Warwick Farmers Market/FARM FRESH",-71.514816,41.714478,"186 Providence St","","West Warwick","RI","02893","2508","KENT" 
"Colbea Enterprises LLC (31) 31",-71.451004,41.902058,"1783 Old Louisquisset Pike","","Lincoln","RI","02865","4562","PROVIDENCE" 
"Colbea Enterprises LLC (36) 36",-71.522758,41.870186,"368 Putnam Pike","","Smithfield","RI","02917","2418","PROVIDENCE" 
"Colbea Enterprises LLC (25) 25",-71.42878,41.868198,"1132 Mineral Spring Ave","","North Providence","RI","02904","4104","PROVIDENCE" 
"Colbea Enterprises LLC (38) 38",-71.435478,41.868111,"1275 Mineral Spring Ave","","North Providence","RI","02904","4627","PROVIDENCE" 
"Colbea Enterprises LLC (23) 23",-71.512062,41.827229,"1680 Hartford Ave","","Johnston","RI","02919","3239","PROVIDENCE" 
"Colbea Enterprises LLC (24) Shell 24",-71.453018,41.748184,"1207 Pontiac Ave","","Cranston","RI","02920","7948","PROVIDENCE" 
"Colbea Enterprises LLC (27) 27",-71.492645,41.626656,"2563 S County Trl","","East Greenwich","RI","02818","1720","KENT" 
"Colbea Enterprises LLC (35) Shell 35",-71.499481,41.670242,"1190 Quaker Ln","","East Greenwich","RI","02818","1621","KENT" 
"Colbea Enterprises LLC (41) 41",-71.438934,41.726551,"2025 Post Rd","","Warwick","RI","02886","1437","KENT" 
"Dennis Market Inc",-71.473282,41.966206,"359 Old River Rd","","Manville","RI","02838","1211","PROVIDENCE" 
"Colbea Enterprises LLC (40) 40",-71.306328,41.738544,"242 County Rd","","Barrington","RI","02806","4514","BRISTOL" 
"Colbea Enterprises LLC (44) 44",-71.357094,41.815773,"2200 Pawtucket Ave","","East Providence","RI","02914","1708","PROVIDENCE" 
"Colbea Enterprises LLC (47) 47",-71.263687,41.694313,"579 Metacom Ave","","Bristol","RI","02809","5150","BRISTOL" 
"Colbea Enterprises LLC (50) 50",-71.294014,41.518635,"207 E Main Rd","","Middletown","RI","02842","4938","NEWPORT" 
"Colbea Enterprises LLC (43) 43",-71.508705,41.684898,"242 Cowesett Ave","","West Warwick","RI","02893","2232","KENT" 
"CVS Pharmacy 2238",-71.489716,41.860252,"26 Putnam Pike","","Johnston","RI","02919","2032","PROVIDENCE" 
"Kool Zone Inc/RI Market",-71.45047,41.822987,"315 Manton Ave","","Providence","RI","02909","3612","PROVIDENCE" 
"Helaneys Food & More",-71.414429,41.874664,"477 Smithfield Ave","","Pawtucket","RI","02860","2547","PROVIDENCE" 
"Baron Market LLC",-71.438049,41.809433,"77 Union Ave","","Providence","RI","02909","2220","PROVIDENCE" 
"Blackstone Market Inc",-71.387199,41.868599,"385 East Ave","","Pawtucket","RI","02860","5265","PROVIDENCE" 
"Kool Zone Inc/RI Market II",-71.386589,41.881138,"130 Broad St","","Pawtucket","RI","02860","2052","PROVIDENCE" 
"Diamond Fuels - Best Way",-71.457436,41.784008,"1353 Park Ave","","Cranston","RI","02920","6624","PROVIDENCE" 
"Explosion Market",-71.428223,41.80975,"248 Dexter St","","Providence","RI","02907","2726","PROVIDENCE" 
"Fairlawn Mobil",-71.414291,41.884552,"935 Smithfield Ave","","Lincoln","RI","02865","3535","PROVIDENCE" 
"T & Y Convenience",-71.414322,41.822617,"123 Mathewson St","","Providence","RI","02903","1806","PROVIDENCE" 
"Lucky Mart LLC   DBA/ Snacks Plus",-71.478661,41.747971,"880 Oaklawn Ave","","Cranston","RI","02920","2641","PROVIDENCE" 
"One Stop Market And Deli",-71.39463,41.862568,"454 Pawtucket Ave","","Pawtucket","RI","02860","5661","PROVIDENCE" 
"S & B Petroleum Inc",-71.455711,41.607193,"7000 Post Rd","","North Kingstown","RI","02852","2703","WASHINGTON" 
"Cibao Meat Supermarket LLC",-71.448158,41.821152,"228 Manton Ave","","Providence","RI","02909","3332","PROVIDENCE" 
"Family Dollar 10008",-71.584167,41.831673,"104 Danielson Pike","","North Scituate","RI","02857","1807","PROVIDENCE" 
"Pontiac Mart, Inc.",-71.437172,41.772942,"527 Pontiac Ave","","Cranston","RI","02910","3548","PROVIDENCE" 
"Chalkstone Supermarket Inc",-71.442696,41.832268,"1050 Chalkstone Ave","","Providence","RI","02908","","PROVIDENCE" 
"Mount Hope Farmers Market",-71.258369,41.670769,"250 Metacom Ave","","Bristol","RI","02809","5180","BRISTOL" 
"Family 1st Minimart, Llc",-71.476929,41.84465,"329 Woonasquatucket Ave","","North Providence","RI","02911","2427","PROVIDENCE" 
"People Helping People Variety no",-71.45298,41.81358,"439 Plainfield St","","Providence","RI","02909","4442","PROVIDENCE" 
"Chinese Grocery",-71.815201,41.363705,"62 Franklin St","Unit 7","Westerly","RI","02891","3150","WASHINGTON" 
"CV Store Fish Market",-71.393158,41.874283,"619 Main St","","Pawtucket","RI","02860","2842","PROVIDENCE" 
"J W Mini Mart",-71.341812,41.809074,"146 Waterman Ave","Ste A","North Providence","RI","02911","1097","PROVIDENCE" 
"Admiral Mart Inc",-71.43821,41.848988,"649 Admiral St","","Providence","RI","02908","1428","PROVIDENCE" 
"Prince Food Mart",-71.528076,41.695667,"51 W Warwick Ave","","West Warwick","RI","02893","3852","KENT" 
"Broadway Farmers Market",-71.432098,41.818058,"35 Marshall St","","Providence","RI","02909","1610","PROVIDENCE" 
"Twin River Mini Mart",-71.475822,41.880505,"151 Douglas Pike","","Smithfield","RI","02917","","PROVIDENCE" 
"King Of King NY Style",-71.513954,42.01329,"586 N Main St","","Woonsocket","RI","02895","","PROVIDENCE" 
"Tiogue Gas",-71.553848,41.684361,"585 Tiogue Ave","","Coventry","RI","02816","5571","KENT" 
"Providence Alternative Farmers Market",-71.402374,41.850967,"1111 N Main St","","Providence","RI","02904","5746","PROVIDENCE" 
"Sandywoods Farmers Market",-71.204521,41.539391,"43 Muse Way","","Tiverton","RI","02878","3227","NEWPORT" 
"Aldi 33",-71.551888,41.973148,"11 Dowling Village Blvd","","North Smithfield","RI","02896","8266","PROVIDENCE" 
"Armando & Sons Meat Market Inc",-71.420593,41.787773,"895 Elmwood Ave","","Providence","RI","02907","3616","PROVIDENCE" 
"Moon Market",-71.438652,41.783134,"579B Reservoir Ave","","Cranston","RI","02910","1621","PROVIDENCE" 
"Chalkstone Dairyland",-71.440666,41.832253,"1002 Chalkstone Ave","","Providence","RI","02908","4237","PROVIDENCE" 
"Cumberland Convience/Sams Food Store",-71.392845,41.912407,"427 High St","","Cumberland","RI","02864","7920","PROVIDENCE" 
"Los Amigos Market LLC",-71.531708,41.998501,"575 Mason St","","Woonsocket","RI","02895","5051","PROVIDENCE" 
"El Quiche Bakery Store Inc",-71.443611,41.832294,"1076 Chalkstone Ave","","Providence","RI","02908","4551","PROVIDENCE" 
"Dollar Tree 5217",-71.436554,41.732231,"1800 Post Rd","Ste 12","Warwick","RI","02886","1534","KENT" 
"Mendon Road Gulf Inc",-71.435852,41.943951,"1754 Mendon Rd","","Cumberland","RI","02864","4317","PROVIDENCE" 
"N & H Convenience Food Store",-71.26712,41.729187,"428 Child St","","Warren","RI","02885","1836","BRISTOL" 
"Neighborhood Gas Corp",-71.383965,41.879948,"72 Exchange St","","Pawtucket","RI","02860","2025","PROVIDENCE" 
"International Food Market",-71.387512,41.891453,"850 Broad St","","Central Falls","RI","02863","","PROVIDENCE" 
"El Salvador Bakery",-71.394913,41.884949,"525 Dexter St","","Central Falls","RI","02863","2601","PROVIDENCE" 
"Fruit Hill Farmers Market",-71.453026,41.842728,"600 Mount Pleasant Avenue","","Providence","RI","02908","","PROVIDENCE" 
"Smithfield Mobil",-71.519348,41.869843,"354 Putnam Pike","","Smithfield","RI","02917","2418","PROVIDENCE" 
"New England Farms Express",-71.410873,41.856812,"414 Smithfield Ave","","Providence","RI","02904","1578","PROVIDENCE" 
"Crugnale Bakery",-71.43824,41.783436,"567 Reservoir Ave","","Cranston","RI","02910","1621","PROVIDENCE" 
"Khiara Mart",-71.427124,41.793236,"112 Reservoir Ave","","Providence","RI","02907","3416","PROVIDENCE" 
"Burrillville Farmers Market Association Inc.",-71.674751,41.964802,"Tinkham Ln","Front of Jess Smith Memorial Library","Harrisville","RI","02830","1440","PROVIDENCE" 
"Apna Bazar Food Mart",-71.386963,41.870518,"282 East Ave","","Pawtucket","RI","02860","3821","PROVIDENCE" 
"Quick Trip Food Mark",-71.670822,41.826237,"1199C Chopmist Hill Rd","","North Scituate","RI","02857","1558","PROVIDENCE" 
"Kim O, Inc. Dba Li'l General 1",-71.490822,41.998161,"547 Cumberland Hill Rd","","Woonsocket","RI","02895","5634","PROVIDENCE" 
"Food & Fuel",-71.443535,41.802578,"873 Cranston St","","Cranston","RI","02920","7841","PROVIDENCE" 
"Ravi Food Mart",-71.485939,41.441776,"79 Old Tower Hill Rd","","Wakefield","RI","02879","3726","WASHINGTON" 
"JPL Enterprise LLC",-71.407356,41.7924,"1258 Broad St","","Providence","RI","02905","2932","PROVIDENCE" 
"CT Gas",-71.522133,41.985569,"503 Smithfield Rd","","North Smithfield","RI","02896","7213","PROVIDENCE" 
"MA & PA'S COUNTRY STORE",-71.713234,41.509727,"1044A Main St","","Hope Valley","RI","02832","","WASHINGTON" 
"Tabark Market",-71.453026,41.790878,"1289 Cranston St","","Cranston","RI","02920","6717","PROVIDENCE" 
"Express Gas And Food Mart",-71.329987,41.777016,"1345 Wampanoag Trl","","Riverside","RI","02915","1014","PROVIDENCE" 
"Aquidneck Growers' Market",-71.26059,41.545807,"324 E Main Rd","","Portsmouth","RI","02871","2113","NEWPORT" 
"Sams Tobacco Convenience LLC",-71.433975,41.850304,"776 Douglas Ave","","Providence","RI","02908","1603","PROVIDENCE" 
"Hartford Mart",-71.459412,41.818737,"469 Hartford Ave","","Providence","RI","02909","5132","PROVIDENCE" 
"New Metro Mart",-71.40052,41.827667,"221 Thayer St","","Providence","RI","02906","1210","PROVIDENCE" 
"African Imports",-71.414948,41.80603,"304 Prairie Ave","","Providence","RI","02905","2335","PROVIDENCE" 
"Mi Tierra Meat Market",-71.396851,41.886639,"693 Dexter St","","Central Falls","RI","02863","2630","PROVIDENCE" 
"7-Eleven 36113H",-71.402893,41.719528,"2080 Warwick Ave","","Warwick","RI","02889","2450","KENT" 
"Bestway Food Store",-71.354187,41.878864,"823 Newport Ave","","Pawtucket","RI","02861","2936","PROVIDENCE" 
"Bk Mini Mart Inc",-71.424126,41.809933,"103 Elmwood Ave","","Providence","RI","02907","2454","PROVIDENCE" 
"Warwick Gas",-71.501274,41.711494,"335 Providence St","","Warwick","RI","02886","0671","KENT" 
"Pleasant View Market LLC",-71.544319,41.897728,"200 Pleasant View Avenue","","Smithfield","RI","02917","","PROVIDENCE" 
"7-eleven Store 33099 B",-71.454994,41.598412,"7330 Post Rd","","North Kingstown","RI","02852","3213","WASHINGTON" 
"Quality Produce & Fresh Meats 1",-71.5121,42.000099,"251 Bernon St","","Woonsocket","RI","02895","4507","PROVIDENCE" 
"7 Eleven 33426A",-71.444588,41.818035,"65 Manton Ave","","Providence","RI","02909","3307","PROVIDENCE" 
"Dupras Baking Co Inc",-71.493835,42.006081,"39 Sweet Ave","","Woonsocket","RI","02895","","PROVIDENCE" 
"Dollar Tree 5350",-71.493538,41.704575,"1245 Bald Hill Rd","Ste H","Warwick","RI","02886","","KENT" 
"Shore's Market",-71.472328,41.788036,"435 Atwood Ave","","Cranston","RI","02920","5316","PROVIDENCE" 
"Westminister Mart",-71.428329,41.817009,"1181 Westminster St","","Providence","RI","02909","1140","PROVIDENCE" 
"Price Rite of Johnston 374",-71.50145,41.824425,"1450 Hartford Ave","","Johnston","RI","02919","","PROVIDENCE" 
"Casablanca",-71.52478,41.695927,"88 W Warwick Ave","Ste 7","West Warwick","RI","02893","3873","KENT" 
"Season's Best Fruits & Vegetables",-71.504898,41.874126,"127 Dean Ave","","Smithfield","RI","02917","2923","PROVIDENCE" 
"Messer Market LLC",-71.436424,41.813793,"75 Messer St","","Providence","RI","02909","2009","PROVIDENCE" 
"Corner Mini Mart",-71.498222,41.997715,"134 Rathburn St","","Woonsocket","RI","02895","","PROVIDENCE" 
"Cumberland Sunoco",-71.403519,41.944969,"2093 Diamond Hill Rd","","Cumberland","RI","02864","5123","PROVIDENCE" 
"Oceanside Minimart",-71.459869,41.425716,"148 Boon St","","Narragansett","RI","02882","3780","WASHINGTON" 
"Charlies Market",-71.432182,41.80302,"680 Potters Ave","","Providence","RI","02907","3047","PROVIDENCE" 
"Irving Gas At 3302",-71.246262,41.617855,"3302 E Main Rd","","Portsmouth","RI","02871","4206","NEWPORT" 
"Aldi 46",-71.296661,41.527199,"890 W Main Rd","","Middletown","RI","02842","6315","NEWPORT" 
"Dexter Market LLC",-71.398926,41.888569,"874 Dexter St","","Central Falls","RI","02863","1747","PROVIDENCE" 
"Don Jose Fruta Y Vegetales",-71.455795,41.808239,"248 Pocasset Ave","","Providence","RI","02909","4724","PROVIDENCE" 
"Broad Market LLC",-71.404938,41.789833,"1361 Broad St","","Providence","RI","02905","2831","PROVIDENCE" 
"Central Mart And Deli",-71.357414,41.887112,"655 Central Ave","","Pawtucket","RI","02861","2057","PROVIDENCE" 
"Gonzalez Market",-71.416451,41.805138,"454 Public St","","Providence","RI","02907","1224","PROVIDENCE" 
"Family Dollar 9082",-71.453728,41.810856,"150 Pocasset Ave","","Providence","RI","02909","4504","PROVIDENCE" 
"El Fogonazo Meat Market",-71.412094,41.796078,"1059 Broad St","","Providence","RI","02905","1615","PROVIDENCE" 
"The Bread Boss",-71.491447,41.861248,"64 Putnam Pike","","Johnston","RI","02919","2032","PROVIDENCE" 
"Pocasset Food Market",-71.454681,41.809753,"196 Pocasset Ave","","Providence","RI","02909","4604","PROVIDENCE" 
"La Vaquita Market LLC",-71.438042,41.807297,"227 Waldo St","","Providence","RI","02909","2320","PROVIDENCE" 
"Friendly Market Inc",-71.516953,42.005665,"415 Arnold St","","Woonsocket","RI","02895","2946","PROVIDENCE" 
"La Mexicana Mini Mart",-71.451546,41.813663,"403 Plainfield St","","Providence","RI","02909","3709","PROVIDENCE" 
"Ocean Catch LLC 1",-71.487221,41.439571,"566 Kingstown Rd","","Wakefield","RI","02879","3610","WASHINGTON" 
"SILVER STAR BAKERY",-71.392151,41.822388,"150 Ives St","","Providence","RI","02906","3813","PROVIDENCE" 
"Rayan Market",-71.434387,41.736843,"1625 Post Rd","","Warwick","RI","02888","5966","KENT" 
"Castle Market",-71.429298,41.812698,"316 Cranston St","","Providence","RI","02907","2408","PROVIDENCE" 
"Seasons Corner Market 46",-71.436684,41.481888,"1015 Boston Neck Rd","","Narragansett","RI","02882","1704","WASHINGTON" 
"Colbea Enterprises Llc 28",-71.463425,41.716183,"708 Greenwich Ave","","Warwick","RI","02886","1817","KENT" 
"MVC Enterprises Inc. 60",-71.499748,41.824043,"1396 Hartford Ave","","Johnston","RI","02919","7132","PROVIDENCE" 
"Prince Food Market",-71.404549,41.756367,"705 Warwick Ave","","Warwick","RI","02888","2669","KENT" 
"Miquisqueya Super Market",-71.415596,41.798866,"933 Broad St","","Providence","RI","02907","1925","PROVIDENCE" 
"Travelcenters Of America 253",-71.663261,41.60907,"849 Victory Hwy","","West Greenwich","RI","02817","2111","KENT" 
"Gulf Express",-71.39122,41.766613,"2148 Broad St","","Cranston","RI","02905","3302","PROVIDENCE" 
"Food Lane",-71.463036,41.629337,"6155 Post Rd","","North Kingstown","RI","02852","1837","WASHINGTON" 
"Save More Convenience",-71.413658,41.802731,"421 Prairie Ave","","Providence","RI","02905","2118","PROVIDENCE" 
"Black and White Market",-71.40239,41.842037,"130 Cypress Street","Ste C1","Providence","RI","02906","","PROVIDENCE" 
"Convenience Store",-71.406319,41.730183,"1692 Warwick Ave","","Warwick","RI","02889","1531","KENT" 
"Jude Inc",-71.35862,41.811626,"2336 Pawtucket Ave","","East Providence","RI","02914","1710","PROVIDENCE" 
"Hope Market & Deli LLC",-71.417717,41.835316,"43 Douglas Ave","","Providence","RI","02908","3223","PROVIDENCE" 
"Santiago Family Market LLC",-71.437805,41.853256,"929 Douglas Ave","","Providence","RI","02908","1340","PROVIDENCE" 
"Medina Meat Market LLC",-71.44754,41.8046,"341 Webster Ave","","Cranston","RI","02920","7736","PROVIDENCE" 
"Kwik Mart",-71.514572,42.002247,"118 Main St","","Woonsocket","RI","02895","4315","PROVIDENCE" 
"Broadway Market And Deli",-71.36618,41.824211,"665 N Broadway","","East Providence","RI","02914","3424","PROVIDENCE" 
"CVS 10551",-71.430443,41.701916,"198 Buttonwoods Ave","","Warwick","RI","02886","7598","KENT" 
"Foodland Farms",-71.420578,41.854038,"638 Charles St","","Providence","RI","02904","1351","PROVIDENCE" 
"Dollar Tree 5459",-71.46907,41.981842,"3751 Mendon Rd","","Cumberland","RI","02864","","PROVIDENCE" 
"Jacobs Market",-71.429939,41.834297,"693 Chalkstone Ave","","Providence","RI","02908","4341","PROVIDENCE" 
"La Placita Meat Market Llc",-71.516968,42.002533,"165 Arnold St","","Woonsocket","RI","02895","2903","PROVIDENCE" 
"Portuguese American Market Inc",-71.39666,41.791203,"892 Allens Ave","","Providence","RI","02905","4415","PROVIDENCE" 
"Sherlyn Mini Market",-71.456612,41.807056,"294 Pocasset Ave","","Providence","RI","02909","4732","PROVIDENCE" 
"7-eleven 33413C",-71.438835,41.804066,"775 Cranston St","","Providence","RI","02907","3007","PROVIDENCE" 
"Taste of Europe RI",-71.354088,41.87849,"518 Armistice Blvd","","Pawtucket","RI","02861","2458","PROVIDENCE" 
"Caprichos Antioquenos Panaderia",-71.398567,41.872967,"173 Lonsdale Ave","","Pawtucket","RI","02860","3567","PROVIDENCE" 
"Andreas Market",-71.455032,41.825462,"457 Manton Ave","","Providence","RI","02909","4107","PROVIDENCE" 
"In & Out Mart",-71.512466,42.004791,"2 Monument Sq","Unit 3","Woonsocket","RI","02895","3059","PROVIDENCE" 
"SHAW'S SUPERMARKET 07687",-71.356796,41.821712,"585 Taunton Ave","","East Providence","RI","02914","1613","PROVIDENCE" 
"Farm Market",-71.426254,41.801636,"384 Elmwood Ave","","Providence","RI","02907","1641","PROVIDENCE" 
"Tienda Y Taqueria Puebla",-71.387306,41.890335,"765 Broad St","","Central Falls","RI","02863","2314","PROVIDENCE" 
"TD Market",-71.419823,41.816063,"244 Broad St","","Providence","RI","02903","4031","PROVIDENCE" 
"Wild Harmony Farm CSA",-71.620094,41.587399,"366C Victory Hwy","","Exeter","RI","02822","2114","WASHINGTON" 
"L & V Food Market, LLC",-71.48185,41.79631,"1382 Plainfield St","","Cranston","RI","02920","2536","PROVIDENCE" 
"Seabra Foods I, Inc.",-71.279327,41.693329,"1150 Hope St","","Bristol","RI","02809","1138","BRISTOL" 
"Seabra Foods II, Inc.",-71.436935,41.772163,"550 Pontiac Ave","","Cranston","RI","02910","4710","PROVIDENCE" 
"Seabra Foods III, Inc.",-71.440636,41.949402,"2000 Mendon Road","","Cumberland","RI","02864","","PROVIDENCE" 
"Wendy Meat Market LLC",-71.436897,41.805698,"676 Cranston St","","Providence","RI","02907","2840","PROVIDENCE" 
"Stop & Go Deli",-71.497765,42.005184,"66 Cass Ave","","Woonsocket","RI","02895","4708","PROVIDENCE" 
"El Mana Mini Market, LLC",-71.397072,41.892128,"473 Hunt St","","Central Falls","RI","02863","1308","PROVIDENCE" 
"Jubilee African & American Store",-71.438332,41.804592,"739 Cranston St","","Providence","RI","02907","3058","PROVIDENCE" 
"Deals 5569",-71.399406,41.85733,"603 Pawtucket Ave","","Pawtucket","RI","02860","6060","PROVIDENCE" 
"Millicent African Market 1",-71.397331,41.874634,"195 Mineral Spring Ave","","Pawtucket","RI","02860","2809","PROVIDENCE" 
"Block Island Farmers Market",-71.561943,41.173813,"1 Ocean Ave","Negus Park","Block Island","RI","02807","","WASHINGTON" 
"TALHO & CARNICARIA CENTRAL MEAT M",-71.389786,41.822292,"113 Gano St","","Providence","RI","02906","3822","PROVIDENCE" 
"PROVIDENCE MARKET",-71.41909,41.803394,"757 Broad St","","Providence","RI","02907","1602","PROVIDENCE" 
"STOP AND SHOP  716",-71.469048,41.631783,"90 Frenchtown Rd","","N Kingstown","RI","02852","1758","WASHINGTON" 
"DAVE'S MARKETPLACE",-71.451767,41.605621,"105 Gate Rd","","North Kingstown","RI","02852","1301","WASHINGTON" 
"STOP & SHOP 705",-71.533592,41.870193,"446 Putnam Pike","Unit 1","Greenville","RI","02828","3027","PROVIDENCE" 
"DUNNS CORNERS MARKET",-71.768471,41.35033,"5 Langworthy Rd","","Westerly","RI","02891","3909","WASHINGTON" 
"SAL'S BAKERY",-71.451584,41.832485,"1288 Chalkstone Ave","","Providence","RI","02908","3900","PROVIDENCE" 
"NUNEZ FRUIT MARKET",-71.403313,41.787899,"1437 Broad St","","Providence","RI","02905","2832","PROVIDENCE" 
"OCEAN STATE MOBIL",-71.4216,41.77615,"1282 Elmwood Ave","","Cranston","RI","02910","2201","PROVIDENCE" 
"DARLINGTON MARKET",-71.359596,41.886688,"614 Central Ave","","Pawtucket","RI","02861","1957","PROVIDENCE" 
"JERRY'S SUPERMARKET #10",-71.521294,41.708916,"25 Providence St","","West Warwick","RI","02893","3713","KENT" 
"STOP & SHOP 704",-71.403481,41.91256,"70 Mendon Rd","","Cumberland","RI","02864","5327","PROVIDENCE" 
"STOP & SHOP 722",-71.464912,41.832989,"850 Manton Ave","Ste 1","Providence","RI","02909","5655","PROVIDENCE" 
"EUROPEAN FOOD MARKET",-71.436996,41.775249,"102 Rolfe Sq","","Cranston","RI","02910","3413","PROVIDENCE" 
"LI'L GENERAL 22",-71.513626,42.013908,"601 Winter St","","Woonsocket","RI","02895","1170","PROVIDENCE" 
"CUMBERLAND FARMS  1251",-71.500305,41.877827,"353 Waterman Ave","","Smithfield","RI","02917","","PROVIDENCE" 
"CUMBERLAND FARMS  1249",-71.445358,41.801735,"921 Cranston St","","Cranston","RI","02920","5429","PROVIDENCE" 
"DINO'S PARK-N-SHOP",-71.661125,41.906708,"1020 Putnam Pike # 311","","Chepachet","RI","02814","1465","PROVIDENCE" 
"STOP & SHOP #724 714",-71.428574,41.868187,"1128 Mineral Spring Ave","","North Providence","RI","02904","4104","PROVIDENCE" 
"STOP AND SHOP 707",-71.472687,41.781727,"200 Atwood Ave","","Cranston","RI","02920","4053","PROVIDENCE" 
"STOP & SHOP 709",-71.500839,41.687298,"300A Quaker Ln","","Warwick","RI","02886","6613","KENT" 
"J SULLIVANS SHAWS MEAT MKT",-71.513603,42.007446,"143 N Main St","","Woonsocket","RI","02895","3111","PROVIDENCE" 
"CHRISTIANSEN DAIRY CO INC",-71.469299,41.854359,"1729 Smith St","","N Providence","RI","02911","2303","PROVIDENCE" 
"SHORE'S MARKET INC",-71.448235,41.86438,"1590 Mineral Spring Ave","","North Providence","RI","02904","4053","PROVIDENCE" 
"LI'L GENERAL 16",-71.677658,41.966354,"485 CHAPEL STREET","","HARRISVILLE","RI","02830","","PROVIDENCE" 
"ROCH'S FRUIT & PRODUCE INC",-71.521797,41.695183,"1480 MAIN STREET","","W WARWICK","RI","02893","","KENT" 
"WRIGHTS DAIRY FARM",-71.536545,41.985222,"200 Woonsocket Hill Rd","","N Smithfield","RI","02896","7128","PROVIDENCE" 
"Brigidio's Marketplace",-71.57428,41.836246,"25 Village Plaza Way","","North Scituate","RI","02857","1849","PROVIDENCE" 
"CUMBERLAND FARMS 1120",-71.520561,41.997498,"261 S Main St","","Woonsocket","RI","02895","4271","PROVIDENCE" 
"CUMBERLAND FARMS  1224",-71.468811,41.860332,"1933 Mineral Spring Ave","","North Providence","RI","02904","3750","PROVIDENCE" 
"International Meat Market",-71.401367,41.88599,"756 Lonsdale Ave","","Central Falls","RI","02863","2513","PROVIDENCE" 
"EDGEWOOD MARKET",-71.394745,41.785046,"1043 Narragansett Blvd","","Cranston","RI","02905","4226","PROVIDENCE" 
"LI'L GENERAL  2",-71.501793,42.001583,"37 Manville Rd","","Woonsocket","RI","02895","5401","PROVIDENCE" 
"PHRED'S DRUG INC 1",-71.477547,41.734409,"1288 Oaklawn Ave","","Cranston","RI","02920","2634","PROVIDENCE" 
"DAVES MARKETPLACE",-71.530876,41.870785,"4 Cedar Swamp Rd","","Smithfield","RI","02917","2404","PROVIDENCE" 
"CUMBERLAND FARMS  1206",-71.415436,41.881695,"823 Smithfield Ave","","Lincoln","RI","02865","3318","PROVIDENCE" 
"CUMBERLAND FARMS  1214",-71.387146,41.885895,"478 Broad St","","Central Falls","RI","02863","2844","PROVIDENCE" 
"R & D SEAFOOD INC",-71.516434,41.983418,"652 Smithfield Rd","","Woonsocket","RI","02895","6281","PROVIDENCE" 
"CUMBERLAND FARMS  1150",-71.309578,41.49371,"125 Broadway","","Newport","RI","02840","2743","NEWPORT" 
"CUMBERLAND FARMS 1209",-71.280518,41.730766,"66 Market St","","Warren","RI","02885","2515","BRISTOL" 
"STOP AND SHOP  708",-71.292496,41.535503,"1360 W Main Rd","","Middletown","RI","02842","6301","NEWPORT" 
"CUMBERLAND FARMS  1256",-71.486099,41.85844,"2064 Smith St","","N Providence","RI","02911","1740","PROVIDENCE" 
"AB MUNROE DAIRY INC",-71.379951,41.822205,"151 N Brow St","","E Providence","RI","02914","4415","PROVIDENCE" 
"Newport NS Commissary",-71.315018,41.519444,"1163 Whipple St","","Newport","RI","02841","1612","NEWPORT" 
"CUMBERLAND FARMS 1265",-71.376648,41.87373,"193 Division St","","Pawtucket","RI","02860","4335","PROVIDENCE" 
"GAIPO'S MEAT MARKET INC",-71.371468,41.811287,"1075 S Broadway","","East Providence","RI","02914","4729","PROVIDENCE" 
"CUMBERLAND FARMS 1121",-71.213226,41.625164,"1860 Main Rd","","Tiverton","RI","02878","4625","NEWPORT" 
"CLEMENTS' MARKETPLACE INC",-71.250175,41.600029,"2575 E Main Rd","","Portsmouth","RI","02871","4037","NEWPORT" 
"CAPTAIN'S CATCH, INC",-71.453362,41.863171,"1702 Mineral Spring Ave","","North Providence","RI","02904","3916","PROVIDENCE" 
"CUMBERLAND FARMS  1225",-71.361298,41.831772,"350 N Broadway","","Rumford","RI","02916","3519","PROVIDENCE" 
"CABRALS BEEF AND PROVISIONS INC",-71.271049,41.677723,"11 Thompson Ave","","Bristol","RI","02809","2408","BRISTOL" 
"CUMBERLAND FARMS  1227",-71.363419,41.797951,"2812 Pawtucket Ave","","Riverside","RI","02915","4912","PROVIDENCE" 
"CUMBERLAND FARMS  1210",-71.406273,41.79137,"1297 Broad St","","Providence","RI","02905","2935","PROVIDENCE" 
"CUMBERLAND FARMS  1279",-71.441345,41.781185,"659 Reservoir Ave","","Cranston","RI","02910","3219","PROVIDENCE" 
"Antonelli Poultry Inc",-71.426842,41.82399,"62 Depasquale Ave","","Providence","RI","02903","","PROVIDENCE" 
"STOP & SHOP 718",-71.480858,41.428387,"91 Point Judith Rd","Ste 1","Narragansett","RI","02882","3445","WASHINGTON" 
"EAST SIDE PRESCRIPTION CENTER INC",-71.397629,41.843868,"632 Hope St","","Providence","RI","02906","2658","PROVIDENCE" 
"STOP & SHOP 703",-71.498077,41.820457,"11 Commerce Way","Ste 1","Johnston","RI","02919","4613","PROVIDENCE" 
"SUNSHINE MARKET",-71.392784,41.891609,"181 Washington St","","Central Falls","RI","02863","2026","PROVIDENCE" 
"MCQUADE'S MKT",-71.37529,41.495087,"6 Clarke St","","Jamestown","RI","02835","","NEWPORT" 
"CUMBERLAND FARMS  1259",-71.820282,41.370743,"129 Granite St","","Westerly","RI","02891","","WASHINGTON" 
"MEKONG MARKET",-71.421036,41.81451,"314 Broad St","","Providence","RI","02907","2238","PROVIDENCE" 
"MICHAELS MEATS",-71.441727,41.952332,"2130 Mendon Rd","Ste 4","Cumberland","RI","02864","3837","PROVIDENCE" 
"LONG WHARF SEAFOOD INC",-71.317047,41.499771,"17 Connell Hwy","","Newport","RI","02840","1516","NEWPORT" 
"CUMBERLAND FARMS  1275",-71.459373,41.977375,"3400 Mendon Rd","","Cumberland","RI","02864","2155","PROVIDENCE" 
"CUMBERLAND FARMS  1134",-71.435036,41.47543,"909 Boston Neck Rd","","Narragansett","RI","02882","1758","WASHINGTON" 
"CUMBERLAND FARMS  1130",-71.82753,41.383167,"69 Friendship St","","Westerly","RI","02891","1544","WASHINGTON" 
"CUMBERLAND FARMS  1276",-71.528633,41.700478,"244 Washington St","","West Warwick","RI","02893","5903","KENT" 
"CUMBERLAND FARMS 1104",-71.506378,41.684978,"278 Cowesett Ave","","West Warwick","RI","02893","2205","KENT" 
"SANDY LANE MEAT MARKET",-71.398125,41.712788,"459 Sandy Ln","","Warwick","RI","02889","4336","KENT" 
"WESTERLY PACKING COMPANY INC",-71.836777,41.400845,"15 Springbrook Rd","","Westerly","RI","02891","1002","WASHINGTON" 
"CUMBERLAND FARMS  1280",-71.395958,41.846939,"751 Hope St","","Providence","RI","02906","3637","PROVIDENCE" 
"MCQUADES MARKETPLACE",-71.831047,41.374775,"106 Main St","","Westerly","RI","02891","2114","WASHINGTON" 
"DAVE'S MARKETPLACE",-71.419464,41.7047,"2687 W Shore Rd","","Warwick","RI","02889","8655","KENT" 
"Liguoris Market",-71.827835,41.386925,"46 Pierce St","","Westerly","RI","02891","1656","WASHINGTON" 
"CUMBERLAND FARMS  1219",-71.59465,41.673916,"1600 Nooseneck Hill Rd","","Coventry","RI","02816","6705","KENT" 
"SHAW'S MEATS",-71.501419,42.011814,"801 Social St","","Woonsocket","RI","02895","2108","PROVIDENCE" 
"REALES GROCERY",-71.825127,41.383106,"122 High St","","Westerly","RI","02891","1823","WASHINGTON" 
"CUMBERLAND FARMS  1250",-71.557587,41.70834,"436 Knotty Oak Rd","","Coventry","RI","02816","8218","KENT" 
"SUMMIT GENERAL STORE",-71.699326,41.691441,"25 Old Summit Rd","","Greene","RI","02827","1716","KENT" 
"CUMBERLAND FARMS  1247",-71.56356,41.681942,"785 Tiogue Ave","","Coventry","RI","02816","5807","KENT" 
"CUMBERLAND FARMS  1236",-71.40802,41.741043,"1291 Warwick Ave","","Warwick","RI","02888","5030","KENT" 
"TOM'S FRUIT & DELI INC",-71.565514,41.681492,"821 Tiogue Ave","","Coventry","RI","02816","5807","KENT" 
"CUMBERLAND FARMS  1234",-71.459351,41.697151,"3377 Post Rd","","Warwick","RI","02886","7146","KENT" 
"CUMBERLAND FARMS  1205",-71.533485,41.722374,"704 Main St","","West Warwick","RI","02893","5610","KENT" 
"CUMBERLAND FARMS  1215",-71.485428,41.388142,"865 Point Judith Rd","","Narragansett","RI","02882","5109","WASHINGTON" 
"CUMBERLAND FARMS 1127",-71.501785,41.696434,"275 Legris Ave","","West Warwick","RI","02893","","KENT" 
"ALTERNATIVE FOOD COOP",-71.499817,41.438084,"357 Main St","","Wakefield","RI","02879","7403","WASHINGTON" 
"RITACCO MARKET",-71.815788,41.383629,"84 Oak St","","Westerly","RI","02891","1737","WASHINGTON" 
"EAST PROVIDENCE PORTUGUESE MARKET",-71.374969,41.815128,"220 Warren Ave","","East Providence","RI","02914","4816","PROVIDENCE" 
"SHAW'S SUPERMARKET 07443",-71.446938,41.854591,"15 Smithfield Rd","","North Providence","RI","02904","5312","PROVIDENCE" 
"SPRING ST MARKET",-71.716911,41.507587,"1 Spring St","","Hope Valley","RI","02832","1627","WASHINGTON" 
"WALGREENS  03204",-71.444397,41.832893,"295 Academy Ave","","Providence","RI","02908","4148","PROVIDENCE" 
"OLD ORCHARD FARM DF",-71.483246,41.974907,"505 Old River Rd","","Manville","RI","02838","1220","PROVIDENCE" 
"SAVE-A-LOT LTD 803",-71.404869,41.873463,"477 Mineral Spring Ave","","Pawtucket","RI","02860","3501","PROVIDENCE" 
"STOP & SHOP  725",-71.413139,41.846073,"333 W River St","","Providence","RI","02904","2610","PROVIDENCE" 
"Rite Aid 10252",-71.419487,41.80463,"711 BROAD STREET","","PROVIDENCE","RI","02907","","PROVIDENCE" 
"SHAW'S SUPERMARKET 07434",-71.343834,41.759041,"1050 Willett Ave","","East Providence","RI","02915","2062","PROVIDENCE" 
"LASALLE BAKERY",-71.444366,41.842346,"993 Smith St","","Providence","RI","02908","2737","PROVIDENCE" 
"TENARES SUPERMARKET, INC",-71.433128,41.809891,"484 Cranston St","","Providence","RI","02907","2745","PROVIDENCE" 
"DYER MART & DELI",-71.45797,41.799717,"500 Dyer Ave","","Cranston","RI","02920","7081","PROVIDENCE" 
"SHOP N GO",-71.491447,41.791504,"1569 Plainfield Pike","","Johnston","RI","02919","6218","PROVIDENCE" 
"Rite Aid 10256",-71.35746,41.810734,"655 Warren Ave","","E Providence","RI","02914","1404","PROVIDENCE" 
"WALGREENS  2850",-71.442543,41.781864,"1010 Park Ave","","Cranston","RI","02910","3244","PROVIDENCE" 
"RITE AID 10247",-71.401443,41.853024,"1200 N Main St","","Providence","RI","02904","1820","PROVIDENCE" 
"Rite Aid 10258",-71.354279,41.853298,"220 Newport Ave","","Rumford","RI","02916","2117","PROVIDENCE" 
"Rite Aid 10248",-71.45182,41.86364,"1665 Mineral Spring Ave","","North Providence","RI","02904","4003","PROVIDENCE" 
"Rite Aid 10222",-71.29982,41.516972,"7 E Main Rd","","Middletown","RI","02842","4911","NEWPORT" 
"Rite Aid 10253",-71.44429,41.830414,"200 Academy Ave","","Providence","RI","02908","4453","PROVIDENCE" 
"RITE AID 10229",-71.390404,41.858582,"727 EAST AVE","","PAWTUCKET","RI","02860","","PROVIDENCE" 
"STOP & SHOP  701",-71.308434,41.481522,"250 Bellevue Ave","","Newport","RI","02840","3545","NEWPORT" 
"Rite Aid 10242",-71.403702,41.720322,"2055 Warwick Ave","","Warwick","RI","02889","3144","KENT" 
"DAVES MARKETPLACE OF AIRPORT ROAD",-71.407654,41.733387,"18 Airport Rd","","Warwick","RI","02889","1036","KENT" 
"BRISTOL FOOD MART INC",-71.270195,41.668579,"259 Wood St","","Bristol","RI","02809","3231","BRISTOL" 
"SILVER MART, INC",-71.374451,41.882233,"170 Cottage St","","Pawtucket","RI","02860","3090","PROVIDENCE" 
"Rite Aid 10244",-71.523285,41.706367,"1155 Main St","","West Warwick","RI","02893","4830","KENT" 
"Rite Aid 10241",-71.416306,41.705429,"2595 W Shore Rd","","Warwick","RI","02889","8106","KENT" 
"ASIAN MARKET & VIDEO",-71.505684,42.007008,"475 Clinton St","","Woonsocket","RI","02895","3214","PROVIDENCE" 
"ASIANA FOOD MARKET",-71.380394,41.817005,"92 Warren Ave","","E Providence","RI","02914","5137","PROVIDENCE" 
"Rite Aid 10261",-71.457726,41.798309,"548 Dyer Ave","","Cranston","RI","02920","5227","PROVIDENCE" 
"RITE AID 10227",-71.418251,41.870991,"342 Power Rd","","Pawtucket","RI","02860","3329","PROVIDENCE" 
"Rite Aid 10235",-71.19519,41.655594,"677 Main Rd","","Tiverton","RI","02878","1352","NEWPORT" 
"SHOP N GO",-71.385887,41.72599,"636 W Shore Rd","","Warwick","RI","02889","1353","KENT" 
"WALGREENS  3898",-71.503227,42.008286,"45 Cumberland St","","Woonsocket","RI","02895","3301","PROVIDENCE" 
"WALGREENS  3491",-71.40049,41.778011,"1763 Broad St","","Cranston","RI","02905","3532","PROVIDENCE" 
"WALGREENS  03719",-71.488411,41.859684,"25 Putnam Pike","","Johnston","RI","02919","2029","PROVIDENCE" 
"SUNNY MARKET PLACE",-71.429184,41.790134,"243 Reservoir Ave","","Providence","RI","02907","3402","PROVIDENCE" 
"SHAW'S SUPERMARKET 07438",-71.482445,41.442307,"160A Old Tower Hill Rd","","Wakefield","RI","02879","","WASHINGTON" 
"XTRA MART - CLYDE  1830",-71.525177,41.719456,"888 Main St","","West Warwick","RI","02893","4337","KENT" 
"WALGREENS  03703",-71.427986,41.84581,"354 Admiral St","","Providence","RI","02908","2537","PROVIDENCE" 
"A & B  CONVENIENCE & DELI",-71.44989,41.832737,"1245 Chalkstone Ave","","Providence","RI","02908","3903","PROVIDENCE" 
"WALGREENS 04145",-71.426125,41.797783,"533 Elmwood Ave","","Providence","RI","02907","1758","PROVIDENCE" 
"WALGREENS  3345",-71.399117,41.712387,"2399 Warwick Ave","","Warwick","RI","02889","4262","KENT" 
"CONIMICUT VARIETY",-71.384285,41.72496,"695 W Shore Rd","","Warwick","RI","02889","2648","KENT" 
"SAVE-A-LOT 823",-71.468994,41.820183,"405 Killingly St","","Providence","RI","02909","5900","PROVIDENCE" 
"STOP & SHOP 729",-71.687836,41.512234,"3 Stilson Rd","","Richmond","RI","02898","1075","WASHINGTON" 
"XELAPAN BAKERY",-71.402206,41.889278,"904 Lonsdale Ave","","Central Falls","RI","02863","1617","PROVIDENCE" 
"NORTH MAIN SHELL",-71.40892,41.839314,"691 N Main St","","Providence","RI","02904","5701","PROVIDENCE" 
"Al-Mall Daily Mart",-71.399284,41.776176,"1814 Broad St","","Cranston","RI","02905","3502","PROVIDENCE" 
"MI PUEBLO MARKET INC",-71.396133,41.885983,"635 Dexter St","","Central Falls","RI","02863","2640","PROVIDENCE" 
"NAYCO FAMILY STORE",-71.409111,41.90419,"194 Front St","","Lincoln","RI","02865","2000","PROVIDENCE" 
"BESTWAY CONVENIENCE STORE",-71.468086,41.547829,"1085 Tower Hill Rd","","North Kingstown","RI","02852","6619","WASHINGTON" 
"DAVES MARKEPLACE OF WICKFORD",-71.461403,41.571053,"125 Tower Hill Rd","","North Kingstown","RI","02852","4809","WASHINGTON" 
"WALGREENS 3899",-71.482147,41.796291,"1387 Plainfield St","","Johnston","RI","02919","6821","PROVIDENCE" 
"WALGREENS  3468",-71.386566,41.880886,"100 Broad St","","Pawtucket","RI","02860","2024","PROVIDENCE" 
"BRIGIDO'S IGA MARKETPLACE",-71.564972,41.997009,"900 VICTORY HWY","","SLATERSVILLE","RI","02876","","PROVIDENCE" 
"Rite Aid 10230",-71.388168,41.895145,"1114 Broad St","","Central Falls","RI","02863","1509","PROVIDENCE" 
"WALGREENS  03737",-71.426018,41.868282,"1074 Mineral Spring Ave","","North Providence","RI","02904","4104","PROVIDENCE" 
"WALGREENS  3704",-71.459534,41.697784,"3336 Post Rd","","Warwick","RI","02886","7132","KENT" 
"SHAW'S SUPERMARKET 07435",-71.304222,41.737392,"186A County Rd","","Barrington","RI","02806","4519","BRISTOL" 
"JAMAL & JAMEL VARIETY STORE",-71.438484,41.804329,"750 CRANSTON ST","","PROVIDENCE","RI","02907","","PROVIDENCE" 
"COUNTRY FARMS",-71.671486,41.915176,"1200 PUTNAM PIKE, PO BOX F","","CHEPACHET","RI","02814","","PROVIDENCE" 
"STOP & SHOP 0731",-71.31781,41.510593,"199 Connell Hwy","Unit 1","Newport","RI","02840","1091","NEWPORT" 
"Rite Aid 10228",-71.39592,41.874771,"150 Mineral Spring Ave","","Pawtucket","RI","02860","2810","PROVIDENCE" 
"Pick N Pay Food Mart/Smoke Shop Inc",-71.275337,41.667461,"300 Hope St","","Bristol","RI","02809","2029","BRISTOL" 
"DAVE'S MARKETPLACE #6",-71.40345,41.944687,"2077 Diamond Hill Rd","","Cumberland","RI","02864","5123","PROVIDENCE" 
"SUPER MART CONVENIENCE STORE",-71.281395,41.723759,"747 Main St","","Warren","RI","02885","4319","BRISTOL" 
"SAVE-A-LOT 814",-71.363525,41.797508,"2830 PAWTUCKET AVE.","","E PROVIDENCE","RI","02914","","PROVIDENCE" 
"BROADWAY MARKET",-71.376312,41.884445,"399 Broadway","","Pawtucket","RI","02860","1306","PROVIDENCE" 
"PRICERITE 372",-71.423386,41.771576,"1415 Elmwood Ave","","Cranston","RI","02910","3849","PROVIDENCE" 
"WOONSOCKET CONVENIENCE STORE",-71.52932,41.990955,"575 S Main St","","Woonsocket","RI","02895","5746","PROVIDENCE" 
"MCCOY MARKET",-71.372139,41.873631,"171 S Bend St","","Pawtucket","RI","02860","4534","PROVIDENCE" 
"CVS PHARMACY  326",-71.515694,41.983959,"1450 Park Ave","","Woonsocket","RI","02895","6557","PROVIDENCE" 
"CVS PHARMACY  1294",-71.388382,41.830032,"481 Angell St","","Providence","RI","02906","4407","PROVIDENCE" 
"CVS PHARMACY  351",-71.467743,41.860512,"1919 Mineral Spring Ave","","North Providence","RI","02904","3772","PROVIDENCE" 
"CVS PHARMACY  729",-71.395081,41.848747,"799 Hope St","","Providence","RI","02906","3635","PROVIDENCE" 
"CVS PHARMACY  212",-71.442131,41.780636,"681 Reservoir Ave","","Cranston","RI","02910","3220","PROVIDENCE" 
"CVS PHARMACY  1042",-71.354179,41.879074,"835 Newport Ave","","Pawtucket","RI","02861","2641","PROVIDENCE" 
"CVS PHARMACY  670",-71.415428,41.879318,"601 Smithfield Ave","","Pawtucket","RI","02860","1682","PROVIDENCE" 
"CVS PHARMACY  13",-71.412216,41.824131,"70 Kennedy Plz","","Providence","RI","02903","2016","PROVIDENCE" 
"JERUSALEM MEAT MARKET",-71.436722,41.77586,"88 1/2 Rolfe Sq","","Cranston","RI","02910","3413","PROVIDENCE" 
"AZOREAN BUTCHER SHOP",-71.272346,41.674301,"529 Wood St","","Bristol","RI","02809","2363","BRISTOL" 
"Stop & Shop 712",-71.480446,41.935402,"622 George Washington Hwy","Ste 302","Lincoln","RI","02865","4211","PROVIDENCE" 
"ORIENTAL PLAZA INC.,",-71.423965,41.834614,"373 Smith St","","Providence","RI","02908","3759","PROVIDENCE" 
"CVS PHARMACY  994",-71.450317,41.812504,"131 Webster Ave","","Providence","RI","02909","2931","PROVIDENCE" 
"CVS PHARMACY  590",-71.496048,42.005421,"166 Cass Ave","","Woonsocket","RI","02895","4712","PROVIDENCE" 
"CVS PHARMACY  856",-71.429771,41.846153,"400 Admiral St","","Providence","RI","02908","2416","PROVIDENCE" 
"CVS PHARMACY  2384",-71.491379,41.723858,"834 Providence St","","West Warwick","RI","02893","1135","KENT" 
"CVS Pharmacy 1075",-71.704399,41.955685,"26 High St","","Pascoag","RI","02859","2619","PROVIDENCE" 
"CVS PHARMACY  2234",-71.387299,41.867233,"425 East Ave","","Pawtucket","RI","02860","5217","PROVIDENCE" 
"Rite Aid 10249",-71.42057,41.850491,"456 Branch Ave","","Providence","RI","02904","2205","PROVIDENCE" 
"CVS PHARMACY  728",-71.393089,41.907017,"307 Broad St","","Cumberland","RI","02864","7802","PROVIDENCE" 
"CVS PHARMACY  210",-71.303719,41.736725,"180 County Rd","","Barrington","RI","02806","4532","BRISTOL" 
"CVS PHARMACY  265",-71.268684,41.718075,"615 Metacom Ave # 136","","Warren","RI","02885","2813","BRISTOL" 
"CVS PHARMACY  311",-71.452484,41.656929,"527 Main St","","East Greenwich","RI","02818","3645","KENT" 
"CVS PHARMACY  330",-71.532654,41.870296,"445 PUTNAM PIKE,APPLE VALLEY","","GREENVILLE","RI","02828","","PROVIDENCE" 
"CVS PHARMACY  469",-71.450844,41.752586,"1188 Pontiac Ave","","Cranston","RI","02920","7921","PROVIDENCE" 
"CVS PHARMACY  595",-71.458336,41.620998,"6495 Post Rd","","North Kingstown","RI","02852","1829","WASHINGTON" 
"CVS PHARMACY  621",-71.561378,41.682625,"763 Tiogue Ave","","Coventry","RI","02816","5805","KENT" 
"CVS PHARMACY  645",-71.260406,41.680187,"400 Metacom Ave","","Bristol","RI","02809","5188","BRISTOL" 
"CVS PHARMACY  689",-71.450851,41.708466,"2790 Post Rd","","Warwick","RI","02886","3113","KENT" 
"ELMWOOD FOOD MARKET",-71.425835,41.802891,"342 Elmwood Ave","","Providence","RI","02907","1534","PROVIDENCE" 
"SAVERS MART II 2",-71.421165,41.788807,"871 Elmwood Ave","","Providence","RI","02907","3654","PROVIDENCE" 
"CVS PHARMACY  971",-71.81971,41.368984,"150 Granite St","","Westerly","RI","02891","2439","WASHINGTON" 
"CVS PHARMACY  2065",-71.489365,41.441448,"11 Main St","","Wakefield","RI","02879","3562","WASHINGTON" 
"CVS PHARMACY  733",-71.398964,41.712353,"2400 Warwick Ave","","Warwick","RI","02889","4263","KENT" 
"CVS PHARMACY  247",-71.353615,41.771461,"444 Willett Ave","","Riverside","RI","02915","2515","PROVIDENCE" 
"CVS PHARMACY  2323",-71.524689,41.683395,"1734 Main St","","West Warwick","RI","02893","5408","KENT" 
"CVS PHARMACY  494",-71.499825,41.824062,"1400 Hartford Ave","","Johnston","RI","02919","3204","PROVIDENCE" 
"CVS PHARMACY  1086",-71.19088,41.660389,"496 Main Rd","","Tiverton","RI","02878","1381","NEWPORT" 
"CVS PHARMACY  2021",-71.472412,41.781307,"205 Atwood Ave","","Cranston","RI","02920","4047","PROVIDENCE" 
"CVS PHARMACY  642",-71.378746,41.68433,"767 Warwick Neck Ave","","Warwick","RI","02889","6516","KENT" 
"Thurbers Avenue Services Inc",-71.405739,41.799332,"1025 Eddy St","","Providence","RI","02905","1525","PROVIDENCE" 
"7-ELEVEN 32614A",-71.519005,41.91576,"970 Douglas Pike","Unit 1","Smithfield","RI","02917","1840","PROVIDENCE" 
"SHOP 'N' GO",-71.482117,41.837883,"237 Greenville Ave","","Johnston","RI","02919","4153","PROVIDENCE" 
"SUPER STOP & SHOP 714",-71.443581,41.795654,"204 Garfield Ave","","Cranston","RI","02920","7803","PROVIDENCE" 
"Bradford Pizza & Mart",-71.748062,41.401543,"60 Main St","","Bradford","RI","02808","","WASHINGTON" 
"PRICERITE 359",-71.470062,42.014969,"2000 Diamond Hill Rd","","Woonsocket","RI","02895","1554","PROVIDENCE" 
"L & B VARIETY",-71.527527,42.001877,"367 Fairmount St","","Woonsocket","RI","02895","4104","PROVIDENCE" 
"BD MART",-71.456558,41.790443,"1356 Cranston St","","Cranston","RI","02920","6726","PROVIDENCE" 
"KMART  9447",-71.441856,41.80241,"7 Garfield Ave","","Cranston","RI","02920","7805","PROVIDENCE" 
"IGGY'S FOOD MART INC.",-71.274605,41.737083,"292 Market St","","Warren","RI","02885","2609","BRISTOL" 
"STOP MARKET AND ASSOCIATES",-71.4291,41.812801,"308 Cranston St","","Providence","RI","02907","2408","PROVIDENCE" 
"7-ELEVEN 33080A",-71.437561,41.783894,"535 Reservoir Ave","","Cranston","RI","02910","1727","PROVIDENCE" 
"KATTANS MARKET",-71.465424,41.737076,"120L East St","","Cranston","RI","02920","","PROVIDENCE" 
"WALMART 2747",-71.483582,41.720211,"650 BALD HILL RD","","WARWICK","RI","02886","","KENT" 
"LA PLACITA",-71.434074,41.821526,"165 Almy St","","Providence","RI","02909","1531","PROVIDENCE" 
"WHOLE FOODS MARKET 10111",-71.409409,41.837212,"601 N Main St","","Providence","RI","02904","5755","PROVIDENCE" 
"ROCH'S FRESH FOOD NARRAGANSETT",-71.437843,41.490517,"1183 Boston Neck Rd","","Narragansett","RI","02882","1705","WASHINGTON" 
"Capital Farms Store",-71.396194,41.885914,"622 Dexter St","","Central Falls","RI","02863","2641","PROVIDENCE" 
"ATWELLS SHELL",-71.439445,41.825001,"286 Valley St","","Providence","RI","02908","5606","PROVIDENCE" 
"LA ESQUINA MARKET",-71.447525,41.806942,"274 Webster Ave","","Providence","RI","02909","3830","PROVIDENCE" 
"EAST GREENWICH FARMS",-71.45018,41.658867,"360 Main St","","East Greenwich","RI","02818","3717","KENT" 
"BUS STOP MARKET",-71.440224,41.849686,"712 Admiral St","","Providence","RI","02908","1336","PROVIDENCE" 
"CVS PHARMACY  2347",-71.358322,41.811012,"640 Warren Ave","","East Providence","RI","02914","1405","PROVIDENCE" 
"CVS PHARMACY  269",-71.356812,41.821712,"583 Taunton Ave","","East Providence","RI","02914","1613","PROVIDENCE" 
"CVS PHARMACY  2417",-71.468094,41.8339,"935 Manton Ave","","Providence","RI","02909","5628","PROVIDENCE" 
"CVS PHARMACY  397",-71.522537,41.708199,"1125 Main St","","West Warwick","RI","02893","3727","KENT" 
"CVS PHARMACY  2358",-71.250198,41.601109,"10 Turnpike Ave","","Portsmouth","RI","02871","1416","NEWPORT" 
"CVS PHARMACY  868",-71.523529,41.485188,"99 Fortin Rd Ste 27","","Kingston","RI","02881","1426","WASHINGTON" 
"CVS PHARMACY  493",-71.297371,41.517658,"99 E Main Rd","","Middletown","RI","02842","4983","NEWPORT" 
"CVS PHARMACY  355",-71.308495,41.482716,"181 Bellevue Ave","","Newport","RI","02840","3989","NEWPORT" 
"HI-LO SUPERMARKET",-71.279289,41.693314,"1150 Hope St","","Bristol","RI","02809","1138","BRISTOL" 
"HI-LO SUPERMARKET",-71.43689,41.772083,"550 Pontiac Ave","","Cranston","RI","02910","4710","PROVIDENCE" 
"El Primo Fruit Market",-71.447777,41.82085,"212 Manton Ave","","Providence","RI","02909","3310","PROVIDENCE" 
"GANO MART",-71.390007,41.823769,"149 Gano St","","Providence","RI","02906","3822","PROVIDENCE" 
"GALLUP MARKET",-71.413834,41.799706,"160 Gallup St","","Providence","RI","02905","1805","PROVIDENCE" 
"Shop Smart",-71.402451,41.718849,"2109 Warwick Ave","","Warwick","RI","02889","3104","KENT" 
"CRANSTON FOOD CENTER, INC.",-71.434502,41.808296,"560 Cranston St","","Providence","RI","02907","2809","PROVIDENCE" 
"LA FRONTERA",-71.401573,41.785931,"1522 Broad St","","Cranston","RI","02905","4141","PROVIDENCE" 
"CVS PHARMACY  4796",-71.414665,41.798309,"960 Broad St","","Providence","RI","02905","1822","PROVIDENCE" 
"HARTMANS /BACK TO BASICS NATURALS",-71.451851,41.657288,"500 MAIN STREET","","EAST GREENWICH","RI","02818","","KENT" 
"PRICERITE 312",-71.488853,41.713074,"945 Bald Hill Rd","","Warwick","RI","02886","0504","KENT" 
"WEBSTER MEAT MARKET, INC.",-71.448074,41.807804,"249 Webster Ave","","Providence","RI","02909","3821","PROVIDENCE" 
"A Market - Newport",-71.308495,41.482716,"181 Bellevue Ave","","Newport","RI","02840","3989","NEWPORT" 
"ASIAN STAR MARKET, INC.",-71.423683,41.793636,"678 Elmwood Ave","","Providence","RI","02907","3353","PROVIDENCE" 
"PROSPECT MINI MARKET INC",-71.367882,41.86039,"620 Prospect St","","Pawtucket","RI","02860","6224","PROVIDENCE" 
"7-ELEVEN 33397-A",-71.412247,41.824154,"10 Dorrance St","","Providence","RI","02903","2018","PROVIDENCE" 
"SAMS FOOD STORES 3010",-71.485489,41.842461,"94 George Waterman Rd","","Johnston","RI","02919","2630","PROVIDENCE" 
"DOCKSIDE FISH",-71.399643,41.715595,"2275 Warwick Ave","","Warwick","RI","02889","4272","KENT" 
"COLBEA ENTERPRISES LLC",-71.424393,41.85215,"598 Branch Ave","","Providence","RI","02904","2204","PROVIDENCE" 
"COLBEA ENTERPRISES LLC",-71.402977,41.849964,"1075 N Main St","","Providence","RI","02904","5718","PROVIDENCE" 
"COLBEA ENTERPRISES LLC",-71.422752,41.749264,"2128 Elmwood Ave","","Warwick","RI","02888","2406","KENT" 
"COLBEA ENTERPRISES LLC 0000000000",-71.482048,42.015762,"1325 Diamond Hill Rd","","Woonsocket","RI","02895","1506","PROVIDENCE" 
"CVS PHARMACY #37 0037",-71.440605,41.949291,"1998 Mendon Rd","","Cumberland","RI","02864","3805","PROVIDENCE" 
"CVS PHARMACY  2048",-71.669144,41.912945,"1151 Putnam Pike","","Chepachet","RI","02814","1960","PROVIDENCE" 
"JOANNA MARKET INC",-71.438232,41.811844,"172 Chapin Ave","","Providence","RI","02909","2121","PROVIDENCE" 
"GUATEMALA BAKERY",-71.444923,41.807606,"241 Union Ave","","Providence","RI","02909","3046","PROVIDENCE" 
"7-ELEVEN 33338-A",-71.435394,41.824409,"548 Atwells Ave","","Providence","RI","02909","2414","PROVIDENCE" 
"COLBEA ENTERPRISES LLC",-71.400169,41.818806,"457 Benefit St","","Providence","RI","02903","4302","PROVIDENCE" 
"COLBEA ENTERPRISES LLC 0000000000",-71.605286,41.653355,"95 Nooseneck Hill Rd","","W Greenwich","RI","02817","1525","KENT" 
"COLBEA ENTERPRISES LLC 0000000000",-71.471214,41.824146,"525 Killingly St","","Johnston","RI","02919","5212","PROVIDENCE" 
"WALMART SUPERCENTER 1964",-71.761375,41.351711,"258 Post Rd","","Westerly","RI","02891","2630","WASHINGTON" 
"IOVINOS MARKET",-71.425446,41.821381,"73 Kenyon St","","Providence","RI","02903","1436","PROVIDENCE" 
"NATICK MART",-71.491302,41.719971,"703 Providence St","","West Warwick","RI","02893","1555","KENT" 
"BELMONT MARKET",-71.488609,41.441715,"608 KINGTOWN RD","","WAKEFIELD","RI","02879","","WASHINGTON" 
"Rite Aid 10237",-71.437935,41.491226,"1193 Boston Neck Rd","","Narragansett","RI","02882","1705","WASHINGTON" 
"Stop & Shop 0726",-71.398483,41.710861,"2470 Warwick Ave","","Warwick","RI","02889","4263","KENT" 
"DAVES MARKETPLACE E GREEWICH SQCO",-71.49897,41.662777,"1000 Division Rd","","E Greenwich","RI","02818","2078","KENT" 
"PORTUGUESE AMERICAN MARKET",-71.396584,41.791092,"896 Allens Ave","","Providence","RI","02905","4415","PROVIDENCE" 
"LI'L GENERAL  9",-71.551193,41.999702,"659 Great Rd","","N Smithfield","RI","02896","6860","PROVIDENCE" 
"CUMBERLAND FARMS  1238",-71.472389,41.827591,"609 Killingly St","","Johnston","RI","02919","4008","PROVIDENCE" 
"PC MART & GAS",-71.427536,41.841644,"408 Douglas Ave","","Providence","RI","02908","2519","PROVIDENCE" 
"A & J SEABRA SUPERMARKET",-71.440781,41.949562,"2012 MENDON RD","","CUMBERLAND","RI","02864","","PROVIDENCE" 
"AMA'S VARIETY & MINI MART",-71.399284,41.86536,"957 Main St","","Pawtucket","RI","02860","4820","PROVIDENCE" 
"7-ELEVEN #33407-A",-71.41993,41.850494,"549 Charles St","","Providence","RI","02904","2227","PROVIDENCE" 
"ARMANDO & SONS MEAT MARKET INC",-71.39032,41.87756,"265 Pine St","","Pawtucket","RI","02860","2933","PROVIDENCE" 
"V&J DELI & GROCERY",-71.409851,41.806667,"272 Public St","","Providence","RI","02905","2218","PROVIDENCE" 
"WALMART  2261",-71.494164,41.581875,"1031 Ten Rod Rd","","N Kingstown","RI","02852","4125","WASHINGTON" 
"Walmart Supercenter 2225",-71.551888,41.973148,"7 Dowling Village Blvd","","North Smithfield","RI","02896","8266","PROVIDENCE" 
"WALMART  2373",-71.415047,41.753117,"840 Post Rd","","Warwick","RI","02888","3365","KENT" 
"WALMART 2885",-71.31781,41.510593,"199 Connell Hwy","Unit 1","Newport","RI","02840","1091","NEWPORT" 
"WALMART  1873",-71.499985,41.790085,"1776 Plainfield Pike","","Cranston","RI","02921","2042","PROVIDENCE" 
"EAGLE SUPER MARKET",-71.391899,41.82148,"117 Ives St","","Providence","RI","02906","3810","PROVIDENCE" 
"7-ELEVEN #33406-A",-71.420418,41.815563,"270 Broad St","","Providence","RI","02903","4032","PROVIDENCE" 
"Rite Aid 10257",-71.34494,41.761711,"1086 Willett Ave E","","Providence","RI","02915","2062","PROVIDENCE" 
"HALLAK MIDDLE EAST MARKET",-71.443466,41.865833,"1455 Mineral Spring Ave","","N Providence","RI","02904","3148","PROVIDENCE" 
"HAWKINS MARKET",-71.42598,41.848335,"103 Hawkins St","","Providence","RI","02908","1745","PROVIDENCE" 
"QUICK MART",-71.405083,41.773003,"164 Park Ave","","Cranston","RI","02905","2650","PROVIDENCE" 
"Compare Foods",-71.417503,41.800407,"863 Broad St","","Providence","RI","02907","1725","PROVIDENCE" 
"STOP & SHOP #723",-71.264137,41.696484,"605 Metacom Ave","","Bristol","RI","02809","5131","BRISTOL" 
"SAMIES FOOD & SMOKE SHOP",-71.449356,41.812447,"50 Pocasset Ave","","Providence","RI","02909","2962","PROVIDENCE" 
"MAYA BAKERY",-71.440369,41.819904,"113 Valley St","","Providence","RI","02909","2441","PROVIDENCE" 
"BREADS N STUFF",-71.522858,41.686729,"1669 Main St","","West Warwick","RI","02893","5305","KENT" 
"Rite Aid 10254",-71.437035,41.771294,"570 Pontiac Ave","","Cranston","RI","02910","4710","PROVIDENCE" 
"Rite Aid 10224",-71.457916,41.588799,"7691 Post Rd","","N Kingstown","RI","02852","3220","WASHINGTON" 
"Rite Aid 10251",-71.387589,41.82674,"135 Pitman St","","Providence","RI","02906","5112","PROVIDENCE" 
"Rite Aid 10243",-71.819168,41.367653,"170 Granite St","","Westerly","RI","02891","2462","WASHINGTON" 
"FELITO FOOD MARKET INC",-71.444427,41.807617,"230 Union Ave","","Providence","RI","02909","3030","PROVIDENCE" 
"GOMEZ MARKET",-71.40303,41.787556,"1459 Broad St","","Providence","RI","02905","2833","PROVIDENCE" 
"EAST SIDE MINI MART",-71.398872,41.823669,"252 Brook St","","Providence","RI","02906","1107","PROVIDENCE" 
"SUPER STOP & SHOP  710",-71.367348,41.886517,"368 Cottage St","","Pawtucket","RI","02861","1604","PROVIDENCE" 
"TOOFS MARKET",-71.420319,41.853054,"611 Charles St","","Providence","RI","02904","1345","PROVIDENCE" 
"SANCHEZ MEXICAN MARKET",-71.443405,41.824753,"802 Atwells Ave","","Providence","RI","02909","2507","PROVIDENCE" 
"T & D MARKET",-71.496658,42.008968,"263 Dulude Ave","","Woonsocket","RI","02895","3431","PROVIDENCE" 
"CHARLESTOWN MINI SUPER,INC",-71.627983,41.386497,"4071 Old Post Rd # 640","","Charlestown","RI","02813","2553","WASHINGTON" 
"HARBOR SHELL FOOD MART",-71.394997,41.786221,"1020 Narragansett Blvd","","Providence","RI","02905","5208","PROVIDENCE" 
"Bimbo Bakeries 6021",-71.35437,41.85696,"82 Newport Ave","","Rumford","RI","02916","2068","PROVIDENCE" 
"D PALMIERI'S BAKERY",-71.472778,41.828739,"624 Killingly St","","Johnston","RI","02919","4010","PROVIDENCE" 
"STOP & SHOP  721",-71.516083,41.983265,"595 Smithfield Rd","","North Smithfield","RI","02896","7226","PROVIDENCE" 
"Brigidio's IGA Marketplace",-71.702553,41.956326,"54 Sayles Ave","","Pascoag","RI","02859","3109","PROVIDENCE" 
"CUMBERLAND FARMS 1237",-71.245987,41.614655,"3166 E Main Rd","","Portsmouth","RI","02871","","NEWPORT" 
"EASTSIDE MARKETPLACE",-71.386742,41.826752,"165 Pitman St","","Providence","RI","02906","5112","PROVIDENCE" 
"Lupitas Market",-71.448303,41.813335,"18 Pocasset Ave","","Providence","RI","02909","2908","PROVIDENCE" 
"JOES MEAT MARKET",-71.431221,41.816673,"1337 Westminster St","","Providence","RI","02909","1412","PROVIDENCE" 
"BROTHER'S MARKET",-71.429497,41.846401,"600 Douglas Ave","","Providence","RI","02908","2408","PROVIDENCE" 
"SAAD FOOD MART INC",-71.354134,41.891865,"1414 Newport Ave","","Pawtucket","RI","02861","1855","PROVIDENCE" 
"TAN'S NEW ASIAN MARKET",-71.421471,41.813988,"339 Broad St","","Providence","RI","02907","2219","PROVIDENCE" 
"WHOLE FOODS MARKET 10014",-71.385811,41.828098,"261 Waterman St","","Providence","RI","02906","5210","PROVIDENCE" 
"PANADERIA EL QUETZAL",-71.458565,41.818611,"445 Hartford Ave","","Providence","RI","02909","5131","PROVIDENCE" 
"SUNNYBROOK FARMS",-71.457619,41.65057,"1002 Main St","","East Greenwich","RI","02818","3165","KENT" 
"SPANISH WHOLESALE CENTER INC",-71.39772,41.887337,"760 Dexter St","","Central Falls","RI","02863","1701","PROVIDENCE" 
"STOP & SHOP  720",-71.569031,41.680607,"900 Tiogue Ave","","Coventry","RI","02816","6301","KENT" 
"North American Salt & Fish Corporation",-71.371666,41.863949,"450 Prospect St","","Pawtucket","RI","02860","6242","PROVIDENCE" 
"LI'L GENERAL  15",-71.392761,41.874542,"600 Main St","","Pawtucket","RI","02860","2839","PROVIDENCE" 
"SILVER LAKE SAUSAGE SHOP",-71.458939,41.807957,"80 Ethan St","","Providence","RI","02909","5327","PROVIDENCE" 
"CUMBERLAND FARMS 1274",-71.598412,41.99469,"302 N MAIN ST","","SLATERSVILLE","RI","02876","","PROVIDENCE" 
"LI'L GENERAL  23",-71.361778,41.886166,"556 Central Ave","","Pawtucket","RI","02861","1949","PROVIDENCE" 
"MAIN ST MARKET",-71.399178,41.866417,"919 Main St","","Pawtucket","RI","02860","4917","PROVIDENCE" 
